{
"type": "FeatureCollection",
"name": "dados",
"crs": { "type": "name", "properties": { "name": "urn:ogc:def:crs:OGC:1.3:CRS84" } },
"features": [
{ "type": "Feature", "properties": { "fid": 1, "tiporesiduo": "Materiais Recicláveis", "bairro": "São José", "endereco": "Avenida Sul", "complemento": "s/n", "observacao": "Cooperativa", "latitude": -8.075631, "longitude": -34.891624, "tipo_padronizado ": "Materiais Recicláveis" }, "geometry": { "type": "Point", "coordinates": [ -34.891624, -8.075631 ] } },
{ "type": "Feature", "properties": { "fid": 2, "tiporesiduo": "Materiais Recicláveis", "bairro": "Dois Unidos", "endereco": "Av. Chagas Ferreira", "complemento": "601", "observacao": "Cooperativa", "latitude": -8.005045, "longitude": -34.912247, "tipo_padronizado ": "Materiais Recicláveis" }, "geometry": { "type": "Point", "coordinates": [ -34.912247, -8.005045 ] } },
{ "type": "Feature", "properties": { "fid": 3, "tiporesiduo": "Materiais Recicláveis", "bairro": "Torre", "endereco": "Rua Eliezer Olímpio de Moura", "complemento": "100", "observacao": "Cooperativa", "latitude": -8.044426, "longitude": -34.91299, "tipo_padronizado ": "Materiais Recicláveis" }, "geometry": { "type": "Point", "coordinates": [ -34.91299, -8.044426 ] } },
{ "type": "Feature", "properties": { "fid": 4, "tiporesiduo": "Materiais Recicláveis", "bairro": "São José", "endereco": "Travessa do Gusmão", "complemento": "178", "observacao": "Cooperativa", "latitude": -8.071821, "longitude": -34.886728, "tipo_padronizado ": "Materiais Recicláveis" }, "geometry": { "type": "Point", "coordinates": [ -34.886728, -8.071821 ] } },
{ "type": "Feature", "properties": { "fid": 5, "tiporesiduo": "Materiais Recicláveis", "bairro": "Guabiraba", "endereco": "Av. Padre Mosca de Carvalho", "complemento": "s/n", "observacao": "Cooperativa", "latitude": -7.964258, "longitude": -34.9246, "tipo_padronizado ": "Materiais Recicláveis" }, "geometry": { "type": "Point", "coordinates": [ -34.9246, -7.964258 ] } },
{ "type": "Feature", "properties": { "fid": 6, "tiporesiduo": "Materiais Recicláveis", "bairro": "Arruda", "endereco": "Avenida Professor José dos Anjos", "complemento": "s/n", "observacao": "Cooperativa", "latitude": -8.020267, "longitude": -34.874597, "tipo_padronizado ": "Materiais Recicláveis" }, "geometry": { "type": "Point", "coordinates": [ -34.874597, -8.020267 ] } },
{ "type": "Feature", "properties": { "fid": 7, "tiporesiduo": "Materiais Recicláveis", "bairro": "São José", "endereco": "Rua Pacatuba", "complemento": "s/n", "observacao": "Cooperativa", "latitude": -8.076567, "longitude": -34.897539, "tipo_padronizado ": "Materiais Recicláveis" }, "geometry": { "type": "Point", "coordinates": [ -34.897539, -8.076567 ] } },
{ "type": "Feature", "properties": { "fid": 8, "tiporesiduo": "Materiais Recicláveis", "bairro": "São José", "endereco": "Rua Oscar de Melo", "complemento": "s/n", "observacao": "Cooperativa", "latitude": -8.077965, "longitude": -34.899157, "tipo_padronizado ": "Materiais Recicláveis" }, "geometry": { "type": "Point", "coordinates": [ -34.899157, -8.077965 ] } },
{ "type": "Feature", "properties": { "fid": 9, "tiporesiduo": "Materiais Recicláveis", "bairro": "Imbiribeira", "endereco": "R. Antônio Cardoso da Fonte", "complemento": "483", "observacao": "Cooperativa", "latitude": -8.097676, "longitude": -34.919589, "tipo_padronizado ": "Materiais Recicláveis" }, "geometry": { "type": "Point", "coordinates": [ -34.919589, -8.097676 ] } },
{ "type": "Feature", "properties": { "fid": 10, "tiporesiduo": "Materiais Recicláveis", "bairro": "Ibura", "endereco": "Rua Rio Uma", "complemento": "150", "observacao": "Cooperativa", "latitude": -8.114698, "longitude": -34.931643, "tipo_padronizado ": "Materiais Recicláveis" }, "geometry": { "type": "Point", "coordinates": [ -34.931643, -8.114698 ] } },
{ "type": "Feature", "properties": { "fid": 11, "tiporesiduo": "Materiais Recicláveis, Resíduos da Construção, Móveis e Eletrodomésticos", "bairro": "Arruda", "endereco": "Av. Prof. José dos Anjos", "complemento": null, "observacao": "Ecoestação Arruda", "latitude": -8.020158, "longitude": -34.874417, "tipo_padronizado ": "Materiais Recicláveis, Resíduos da Construção, Móveis e Eletrodomésticos" }, "geometry": { "type": "Point", "coordinates": [ -34.874417, -8.020158 ] } },
{ "type": "Feature", "properties": { "fid": 12, "tiporesiduo": "Materiais Recicláveis, Resíduos da Construção, Móveis e Eletrodomésticos", "bairro": "Campo Grande", "endereco": "Av. Agamenon Magalhães com Rua Odorico Mendes", "complemento": null, "observacao": "Ecoestação Campo Grande", "latitude": -8.039289, "longitude": -34.878378, "tipo_padronizado ": "Materiais Recicláveis, Resíduos da Construção, Móveis e Eletrodomésticos" }, "geometry": { "type": "Point", "coordinates": [ -34.878378, -8.039289 ] } },
{ "type": "Feature", "properties": { "fid": 13, "tiporesiduo": "Materiais Recicláveis, Resíduos da Construção, Móveis e Eletrodomésticos", "bairro": "Cohab", "endereco": "Av. Rio Largo com Avenida Santos", "complemento": null, "observacao": "Ecoestação Cohab", "latitude": -8.115278, "longitude": -34.953455, "tipo_padronizado ": "Materiais Recicláveis, Resíduos da Construção, Móveis e Eletrodomésticos" }, "geometry": { "type": "Point", "coordinates": [ -34.953455, -8.115278 ] } },
{ "type": "Feature", "properties": { "fid": 14, "tiporesiduo": "Materiais Recicláveis, Resíduos da Construção, Móveis e Eletrodomésticos", "bairro": "Ibura", "endereco": "Rua Rio Tapado", "complemento": null, "observacao": "Ecoestação Ibura", "latitude": -8.116757, "longitude": -34.943218, "tipo_padronizado ": "Materiais Recicláveis, Resíduos da Construção, Móveis e Eletrodomésticos" }, "geometry": { "type": "Point", "coordinates": [ -34.943218, -8.116757 ] } },
{ "type": "Feature", "properties": { "fid": 15, "tiporesiduo": "Materiais Recicláveis, Resíduos da Construção, Móveis e Eletrodomésticos", "bairro": "Imbiribeira", "endereco": "Av. Mascarenhas de Morais", "complemento": null, "observacao": "Ecoestação Imbiribeira", "latitude": -8.123213, "longitude": -34.914702, "tipo_padronizado ": "Materiais Recicláveis, Resíduos da Construção, Móveis e Eletrodomésticos" }, "geometry": { "type": "Point", "coordinates": [ -34.914702, -8.123213 ] } },
{ "type": "Feature", "properties": { "fid": 16, "tiporesiduo": "Materiais Recicláveis, Resíduos da Construção, Móveis e Eletrodomésticos", "bairro": "Torre", "endereco": "Rua Ciclovia República da Argélia", "complemento": null, "observacao": "Ecoestação Torre", "latitude": -8.044172, "longitude": -34.916232, "tipo_padronizado ": "Materiais Recicláveis, Resíduos da Construção, Móveis e Eletrodomésticos" }, "geometry": { "type": "Point", "coordinates": [ -34.916232, -8.044172 ] } },
{ "type": "Feature", "properties": { "fid": 17, "tiporesiduo": "Materiais Recicláveis, Resíduos da Construção, Móveis e Eletrodomésticos", "bairro": "Torrões", "endereco": "Rua Maestro Jones Johnsson", "complemento": null, "observacao": "Ecoestação Torrões", "latitude": -8.057741, "longitude": -34.935627, "tipo_padronizado ": "Materiais Recicláveis, Resíduos da Construção, Móveis e Eletrodomésticos" }, "geometry": { "type": "Point", "coordinates": [ -34.935627, -8.057741 ] } },
{ "type": "Feature", "properties": { "fid": 18, "tiporesiduo": "Materiais Recicláveis, Resíduos da Construção, Móveis e Eletrodomésticos", "bairro": "Totó", "endereco": "Rua Onze de Agosto", "complemento": null, "observacao": "Ecoestação Totó", "latitude": -8.077674, "longitude": -34.971714, "tipo_padronizado ": "Materiais Recicláveis, Resíduos da Construção, Móveis e Eletrodomésticos" }, "geometry": { "type": "Point", "coordinates": [ -34.971714, -8.077674 ] } },
{ "type": "Feature", "properties": { "fid": 19, "tiporesiduo": "Materiais Recicláveis", "bairro": "Santo Amaro", "endereco": "R. da Aurora, s/n - Santo Amaro, Recife – PE", "complemento": null, "observacao": "PEV", "latitude": -8.054841, "longitude": -34.876912, "tipo_padronizado ": "Materiais Recicláveis" }, "geometry": { "type": "Point", "coordinates": [ -34.876912, -8.054841 ] } },
{ "type": "Feature", "properties": { "fid": 20, "tiporesiduo": "Materiais Recicláveis", "bairro": "Recife", "endereco": "Av. Rio Branco, 261- Recife, PE", "complemento": null, "observacao": "PEV", "latitude": -8.062349, "longitude": -34.873686, "tipo_padronizado ": "Materiais Recicláveis" }, "geometry": { "type": "Point", "coordinates": [ -34.873686, -8.062349 ] } },
{ "type": "Feature", "properties": { "fid": 21, "tiporesiduo": "Materiais Recicláveis", "bairro": "Recife", "endereco": "Av. Alfredo Lisboa, 11 - Bairro do Recife, Recife", "complemento": null, "observacao": "PEV", "latitude": -8.063356, "longitude": -34.871452, "tipo_padronizado ": "Materiais Recicláveis" }, "geometry": { "type": "Point", "coordinates": [ -34.871452, -8.063356 ] } },
{ "type": "Feature", "properties": { "fid": 22, "tiporesiduo": "Materiais Recicláveis", "bairro": "Santo Antônio", "endereco": "Praça da Independência - Santo Antônio, Recife", "complemento": null, "observacao": "PEV", "latitude": -8.064063, "longitude": -34.87838, "tipo_padronizado ": "Materiais Recicláveis" }, "geometry": { "type": "Point", "coordinates": [ -34.87838, -8.064063 ] } },
{ "type": "Feature", "properties": { "fid": 23, "tiporesiduo": "Materiais Recicláveis", "bairro": "Santo Antônio", "endereco": "R. Princesa Isabel, 405 - Santo Amaro, Recife", "complemento": null, "observacao": "PEV", "latitude": -8.058049, "longitude": -34.882241, "tipo_padronizado ": "Materiais Recicláveis" }, "geometry": { "type": "Point", "coordinates": [ -34.882241, -8.058049 ] } },
{ "type": "Feature", "properties": { "fid": 24, "tiporesiduo": "Materiais Recicláveis", "bairro": "Ilha do Leite", "endereco": "Praça Miguel de Cervantes - Ilha do Leite, Recife", "complemento": null, "observacao": "PEV", "latitude": -8.066343, "longitude": -34.893374, "tipo_padronizado ": "Materiais Recicláveis" }, "geometry": { "type": "Point", "coordinates": [ -34.893374, -8.066343 ] } },
{ "type": "Feature", "properties": { "fid": 25, "tiporesiduo": "Materiais Recicláveis", "bairro": "Boa Vista", "endereco": "Av. Lins Petit, 3 - Boa Vista, Recife", "complemento": null, "observacao": "PEV", "latitude": -8.060482, "longitude": -34.894897, "tipo_padronizado ": "Materiais Recicláveis" }, "geometry": { "type": "Point", "coordinates": [ -34.894897, -8.060482 ] } },
{ "type": "Feature", "properties": { "fid": 26, "tiporesiduo": "Materiais Recicláveis", "bairro": "Recife", "endereco": "Cais do Apolo, 905 - Recife, PE", "complemento": null, "observacao": "PEV", "latitude": -8.054718, "longitude": -34.872298, "tipo_padronizado ": "Materiais Recicláveis" }, "geometry": { "type": "Point", "coordinates": [ -34.872298, -8.054718 ] } },
{ "type": "Feature", "properties": { "fid": 27, "tiporesiduo": "Materiais Recicláveis", "bairro": "Boa Vista", "endereco": "Av. da Saudade, 28 - Boa Vista", "complemento": null, "observacao": "PEV", "latitude": -8.050546, "longitude": -34.883392, "tipo_padronizado ": "Materiais Recicláveis" }, "geometry": { "type": "Point", "coordinates": [ -34.883392, -8.050546 ] } },
{ "type": "Feature", "properties": { "fid": 28, "tiporesiduo": "Materiais Recicláveis", "bairro": "Boa Vista", "endereco": "Praça Parque Amorim - Capunga - Boa Vista, Recife", "complemento": null, "observacao": "PEV", "latitude": -8.051907, "longitude": -34.895045, "tipo_padronizado ": "Materiais Recicláveis" }, "geometry": { "type": "Point", "coordinates": [ -34.895045, -8.051907 ] } },
{ "type": "Feature", "properties": { "fid": 29, "tiporesiduo": "Materiais Recicláveis", "bairro": "Recife", "endereco": "Praça do Arsenal da Marinha, 35 Sala 803 – Recife", "complemento": null, "observacao": "PEV", "latitude": -8.061433, "longitude": -34.871067, "tipo_padronizado ": "Materiais Recicláveis" }, "geometry": { "type": "Point", "coordinates": [ -34.871067, -8.061433 ] } },
{ "type": "Feature", "properties": { "fid": 30, "tiporesiduo": "Materiais Recicláveis", "bairro": "Recife", "endereco": "Av. Rio Branco, 155 A – Recife", "complemento": null, "observacao": "PEV", "latitude": -8.062639, "longitude": -34.872884, "tipo_padronizado ": "Materiais Recicláveis" }, "geometry": { "type": "Point", "coordinates": [ -34.872884, -8.062639 ] } },
{ "type": "Feature", "properties": { "fid": 31, "tiporesiduo": "Materiais Recicláveis", "bairro": "Soledade", "endereco": "R. João Fernandes Viêira, 160 - Soledade, Recife", "complemento": null, "observacao": "PEV", "latitude": -8.054543, "longitude": -34.89133, "tipo_padronizado ": "Materiais Recicláveis" }, "geometry": { "type": "Point", "coordinates": [ -34.89133, -8.054543 ] } },
{ "type": "Feature", "properties": { "fid": 32, "tiporesiduo": "Materiais Recicláveis", "bairro": "Hipódromo", "endereco": "R. Carlos Fernandes, 264 - Hipódromo, Recife", "complemento": null, "observacao": "PEV", "latitude": -8.032606, "longitude": -34.886425, "tipo_padronizado ": "Materiais Recicláveis" }, "geometry": { "type": "Point", "coordinates": [ -34.886425, -8.032606 ] } },
{ "type": "Feature", "properties": { "fid": 33, "tiporesiduo": "Materiais Recicláveis", "bairro": "Santo Amaro", "endereco": "Av. Gov. Agamenon Magalhães, 1956 - Santo Amaro, Recife", "complemento": null, "observacao": "PEV", "latitude": -8.039209, "longitude": -34.878273, "tipo_padronizado ": "Materiais Recicláveis" }, "geometry": { "type": "Point", "coordinates": [ -34.878273, -8.039209 ] } },
{ "type": "Feature", "properties": { "fid": 34, "tiporesiduo": "Materiais Recicláveis", "bairro": "Peixinhos", "endereco": "Av. Prof. José dos Anjos, 36 - Peixinhos, Recife", "complemento": null, "observacao": "PEV", "latitude": -8.020321, "longitude": -34.874485, "tipo_padronizado ": "Materiais Recicláveis" }, "geometry": { "type": "Point", "coordinates": [ -34.874485, -8.020321 ] } },
{ "type": "Feature", "properties": { "fid": 35, "tiporesiduo": "Materiais Recicláveis", "bairro": "Encruzilhada", "endereco": "R. Amaro Coutinho, 675 - Encruzilhada, Recife", "complemento": null, "observacao": "PEV", "latitude": -8.032911, "longitude": -34.896082, "tipo_padronizado ": "Materiais Recicláveis" }, "geometry": { "type": "Point", "coordinates": [ -34.896082, -8.032911 ] } },
{ "type": "Feature", "properties": { "fid": 36, "tiporesiduo": "Materiais Recicláveis", "bairro": "Casa Forte", "endereco": "Av. Dezessete de Agosto, 1386 - Casa Forte, Recife", "complemento": null, "observacao": "PEV", "latitude": -8.035757, "longitude": -34.920196, "tipo_padronizado ": "Materiais Recicláveis" }, "geometry": { "type": "Point", "coordinates": [ -34.920196, -8.035757 ] } },
{ "type": "Feature", "properties": { "fid": 37, "tiporesiduo": "Materiais Recicláveis", "bairro": "Monteiro", "endereco": "Av. Dezessete de Agosto, 2702 - Monteiro, Recife", "complemento": null, "observacao": "PEV", "latitude": -8.027942, "longitude": -34.92823, "tipo_padronizado ": "Materiais Recicláveis" }, "geometry": { "type": "Point", "coordinates": [ -34.92823, -8.027942 ] } },
{ "type": "Feature", "properties": { "fid": 38, "tiporesiduo": "Materiais Recicláveis", "bairro": "Poço da Panela", "endereco": "Estr. Real do Poço, 494 - Poço da Panela, Recife", "complemento": null, "observacao": "PEV", "latitude": -8.036449, "longitude": -34.924747, "tipo_padronizado ": "Materiais Recicláveis" }, "geometry": { "type": "Point", "coordinates": [ -34.924747, -8.036449 ] } },
{ "type": "Feature", "properties": { "fid": 39, "tiporesiduo": "Materiais Recicláveis", "bairro": "Morro da Conceição", "endereco": "Estrada do Morro da Conceição, 442 - Morro da Conceição, Recife", "complemento": null, "observacao": "PEV", "latitude": -8.019322, "longitude": -34.914722, "tipo_padronizado ": "Materiais Recicláveis" }, "geometry": { "type": "Point", "coordinates": [ -34.914722, -8.019322 ] } },
{ "type": "Feature", "properties": { "fid": 40, "tiporesiduo": "Materiais Recicláveis", "bairro": "Graças", "endereco": "Av. Rui Barbosa, 1899 - Graças, Recife", "complemento": null, "observacao": "PEV", "latitude": -8.037776, "longitude": -34.905772, "tipo_padronizado ": "Materiais Recicláveis" }, "geometry": { "type": "Point", "coordinates": [ -34.905772, -8.037776 ] } },
{ "type": "Feature", "properties": { "fid": 41, "tiporesiduo": "Materiais Recicláveis", "bairro": "Parnamirim", "endereco": "Av. Dezessete de Agosto, 177 - Parnamirim, Recife", "complemento": null, "observacao": "PEV", "latitude": -8.03418, "longitude": -34.911283, "tipo_padronizado ": "Materiais Recicláveis" }, "geometry": { "type": "Point", "coordinates": [ -34.911283, -8.03418 ] } },
{ "type": "Feature", "properties": { "fid": 42, "tiporesiduo": "Materiais Recicláveis", "bairro": "Jaqueira", "endereco": "R. do Futuro, 1100 - Jaqueira, Recife", "complemento": null, "observacao": "PEV", "latitude": -8.036243, "longitude": -34.903834, "tipo_padronizado ": "Materiais Recicláveis" }, "geometry": { "type": "Point", "coordinates": [ -34.903834, -8.036243 ] } },
{ "type": "Feature", "properties": { "fid": 43, "tiporesiduo": "Materiais Recicláveis", "bairro": "Graças", "endereco": "Rua Senador Alberto Paiva, 71-115 - Graças, Recife - PE, 52050-260 - Graças, Recife", "complemento": null, "observacao": "PEV", "latitude": -8.043843, "longitude": -34.901419, "tipo_padronizado ": "Materiais Recicláveis" }, "geometry": { "type": "Point", "coordinates": [ -34.901419, -8.043843 ] } },
{ "type": "Feature", "properties": { "fid": 44, "tiporesiduo": "Materiais Recicláveis", "bairro": "Jaqueira", "endereco": "Rua Hoel Sette, 109 - Jaqueira, Recife", "complemento": null, "observacao": "PEV", "latitude": -8.036238, "longitude": -34.902906, "tipo_padronizado ": "Materiais Recicláveis" }, "geometry": { "type": "Point", "coordinates": [ -34.902906, -8.036238 ] } },
{ "type": "Feature", "properties": { "fid": 45, "tiporesiduo": "Materiais Recicláveis", "bairro": "Cordeiro", "endereco": "Praça do Arraial Novo do Bom Jesus - Cordeiro - Cordeiro, Recife", "complemento": null, "observacao": "PEV", "latitude": -8.057104, "longitude": -34.930558, "tipo_padronizado ": "Materiais Recicláveis" }, "geometry": { "type": "Point", "coordinates": [ -34.930558, -8.057104 ] } },
{ "type": "Feature", "properties": { "fid": 46, "tiporesiduo": "Materiais Recicláveis", "bairro": "Torrões", "endereco": "R. Tumiritinga, 115 - Torrões, Recife", "complemento": null, "observacao": "PEV", "latitude": -8.057688, "longitude": -34.935291, "tipo_padronizado ": "Materiais Recicláveis" }, "geometry": { "type": "Point", "coordinates": [ -34.935291, -8.057688 ] } },
{ "type": "Feature", "properties": { "fid": 47, "tiporesiduo": "Materiais Recicláveis", "bairro": "Iputinga", "endereco": "R. Ciclovia República da Argélia, 10 - Iputinga, Recife", "complemento": null, "observacao": "PEV", "latitude": -8.044144, "longitude": -34.916223, "tipo_padronizado ": "Materiais Recicláveis" }, "geometry": { "type": "Point", "coordinates": [ -34.916223, -8.044144 ] } },
{ "type": "Feature", "properties": { "fid": 48, "tiporesiduo": "Materiais Recicláveis", "bairro": "Iputinga", "endereco": "Praça Bom Pastor, 1308 - Iputinga, Recife", "complemento": null, "observacao": "PEV", "latitude": -8.048485, "longitude": -34.940198, "tipo_padronizado ": "Materiais Recicláveis" }, "geometry": { "type": "Point", "coordinates": [ -34.940198, -8.048485 ] } },
{ "type": "Feature", "properties": { "fid": 49, "tiporesiduo": "Materiais Recicláveis", "bairro": "Engenho do Meio", "endereco": "R. Antônio Curado, 352-428 - Engenho do Meio, Recife - PE, 50730-180 - Engenho do Meio, Recife", "complemento": null, "observacao": "PEV", "latitude": -8.057298, "longitude": -34.942138, "tipo_padronizado ": "Materiais Recicláveis" }, "geometry": { "type": "Point", "coordinates": [ -34.942138, -8.057298 ] } },
{ "type": "Feature", "properties": { "fid": 50, "tiporesiduo": "Materiais Recicláveis", "bairro": "Ilha do Retiro", "endereco": "Av. Sport Clube do Recife, 830 - Ilha do Retiro, Recife", "complemento": null, "observacao": "PEV", "latitude": -8.061184, "longitude": -34.902856, "tipo_padronizado ": "Materiais Recicláveis" }, "geometry": { "type": "Point", "coordinates": [ -34.902856, -8.061184 ] } },
{ "type": "Feature", "properties": { "fid": 51, "tiporesiduo": "Materiais Recicláveis", "bairro": "Madalena", "endereco": "Av. Beira Rio, 1008 - Madalena, Recife ", "complemento": null, "observacao": "PEV", "latitude": -8.046852, "longitude": -34.904118, "tipo_padronizado ": "Materiais Recicláveis" }, "geometry": { "type": "Point", "coordinates": [ -34.904118, -8.046852 ] } },
{ "type": "Feature", "properties": { "fid": 52, "tiporesiduo": "Materiais Recicláveis", "bairro": "Madalena", "endereco": "R. Castro Leão, 299 - Madalena, Recife", "complemento": null, "observacao": "PEV", "latitude": -8.054359, "longitude": -34.908995, "tipo_padronizado ": "Materiais Recicláveis" }, "geometry": { "type": "Point", "coordinates": [ -34.908995, -8.054359 ] } },
{ "type": "Feature", "properties": { "fid": 53, "tiporesiduo": "Materiais Recicláveis", "bairro": "Torre", "endereco": "Praça Professor Barreto Campelo, 1183 - Torre, Recife", "complemento": null, "observacao": "PEV", "latitude": -8.047049, "longitude": -34.913819, "tipo_padronizado ": "Materiais Recicláveis" }, "geometry": { "type": "Point", "coordinates": [ -34.913819, -8.047049 ] } },
{ "type": "Feature", "properties": { "fid": 54, "tiporesiduo": "Materiais Recicláveis", "bairro": "Várzea", "endereco": "Estação Riacho Cavouco - Sentido Subúrbio - Várzea, Recife", "complemento": null, "observacao": "PEV", "latitude": -8.03667, "longitude": -34.94587, "tipo_padronizado ": "Materiais Recicláveis" }, "geometry": { "type": "Point", "coordinates": [ -34.94587, -8.03667 ] } },
{ "type": "Feature", "properties": { "fid": 55, "tiporesiduo": "Materiais Recicláveis", "bairro": "Iputinga", "endereco": "R. São Mateus, 6 - Iputinga, Recife", "complemento": null, "observacao": "PEV", "latitude": -8.029139, "longitude": -34.934141, "tipo_padronizado ": "Materiais Recicláveis" }, "geometry": { "type": "Point", "coordinates": [ -34.934141, -8.029139 ] } },
{ "type": "Feature", "properties": { "fid": 56, "tiporesiduo": "Materiais Recicláveis", "bairro": "Jiquiá", "endereco": "Av. Gen. San Martin, 1862 - Jiquiá, Recife", "complemento": null, "observacao": "PEV", "latitude": -8.066807, "longitude": -34.927582, "tipo_padronizado ": "Materiais Recicláveis" }, "geometry": { "type": "Point", "coordinates": [ -34.927582, -8.066807 ] } },
{ "type": "Feature", "properties": { "fid": 57, "tiporesiduo": "Materiais Recicláveis", "bairro": "Curado", "endereco": "R. Nelsom de Sena, 5 - Curado, Recife", "complemento": null, "observacao": "PEV", "latitude": -8.077634, "longitude": -34.971882, "tipo_padronizado ": "Materiais Recicláveis" }, "geometry": { "type": "Point", "coordinates": [ -34.971882, -8.077634 ] } },
{ "type": "Feature", "properties": { "fid": 58, "tiporesiduo": "Materiais Recicláveis", "bairro": "Tejipio", "endereco": "Av. Liberdade, 65 - Tejipio, Recife", "complemento": null, "observacao": "PEV", "latitude": -8.082147, "longitude": -34.960266, "tipo_padronizado ": "Materiais Recicláveis" }, "geometry": { "type": "Point", "coordinates": [ -34.960266, -8.082147 ] } },
{ "type": "Feature", "properties": { "fid": 59, "tiporesiduo": "Materiais Recicláveis", "bairro": "Barro", "endereco": "R. Cap. Ponciano, 201 - Barro, Recife", "complemento": null, "observacao": "PEV", "latitude": -8.095263, "longitude": -34.943601, "tipo_padronizado ": "Materiais Recicláveis" }, "geometry": { "type": "Point", "coordinates": [ -34.943601, -8.095263 ] } },
{ "type": "Feature", "properties": { "fid": 60, "tiporesiduo": "Materiais Recicláveis", "bairro": "Areias", "endereco": "R. Álvaro Fragoso, 216 - Areias, Recife", "complemento": null, "observacao": "PEV", "latitude": -8.09606, "longitude": -34.931721, "tipo_padronizado ": "Materiais Recicláveis" }, "geometry": { "type": "Point", "coordinates": [ -34.931721, -8.09606 ] } },
{ "type": "Feature", "properties": { "fid": 61, "tiporesiduo": "Materiais Recicláveis", "bairro": "Jardim São Paulo", "endereco": "Av. Central, 5916 - Jardim São Paulo, Recife", "complemento": null, "observacao": "PEV", "latitude": -8.085763, "longitude": -34.936725, "tipo_padronizado ": "Materiais Recicláveis" }, "geometry": { "type": "Point", "coordinates": [ -34.936725, -8.085763 ] } },
{ "type": "Feature", "properties": { "fid": 62, "tiporesiduo": "Materiais Recicláveis", "bairro": "Imbiribeira", "endereco": "Av. Mascarenhas de Moraes, 533 - Imbiribeira, Recife", "complemento": null, "observacao": "PEV", "latitude": -8.087189, "longitude": -34.907475, "tipo_padronizado ": "Materiais Recicláveis" }, "geometry": { "type": "Point", "coordinates": [ -34.907475, -8.087189 ] } },
{ "type": "Feature", "properties": { "fid": 63, "tiporesiduo": "Materiais Recicláveis", "bairro": "Imbiribeira", "endereco": "R. Nova Verona, 101 - Imbiribeira, Recife", "complemento": null, "observacao": "PEV", "latitude": -8.096544, "longitude": -34.91565, "tipo_padronizado ": "Materiais Recicláveis" }, "geometry": { "type": "Point", "coordinates": [ -34.91565, -8.096544 ] } },
{ "type": "Feature", "properties": { "fid": 64, "tiporesiduo": "Materiais Recicláveis", "bairro": "Imbiribeira", "endereco": "Av. Pres. Dutra, 50 - Imbiribeira, Recife", "complemento": null, "observacao": "PEV", "latitude": -8.123409, "longitude": -34.915241, "tipo_padronizado ": "Materiais Recicláveis" }, "geometry": { "type": "Point", "coordinates": [ -34.915241, -8.123409 ] } },
{ "type": "Feature", "properties": { "fid": 65, "tiporesiduo": "Materiais Recicláveis", "bairro": "Imbiribeira", "endereco": "Av. Mascarenhas de Moraes, 203 - Imbiribeira, Recife", "complemento": null, "observacao": "PEV", "latitude": -8.134015, "longitude": -34.916686, "tipo_padronizado ": "Materiais Recicláveis" }, "geometry": { "type": "Point", "coordinates": [ -34.916686, -8.134015 ] } },
{ "type": "Feature", "properties": { "fid": 66, "tiporesiduo": "Materiais Recicláveis", "bairro": "Boa Viagem", "endereco": "Av. Boa Viagem, 4862 - Boa Viagem, Recife", "complemento": null, "observacao": "PEV", "latitude": -8.131883, "longitude": -34.900145, "tipo_padronizado ": "Materiais Recicláveis" }, "geometry": { "type": "Point", "coordinates": [ -34.900145, -8.131883 ] } },
{ "type": "Feature", "properties": { "fid": 67, "tiporesiduo": "Materiais Recicláveis", "bairro": "Boa Viagem", "endereco": "First Garden of Boa Viagem - Av. Boa Viagem, 1156-1220 - Boa Viagem, Recife", "complemento": null, "observacao": "PEV", "latitude": -8.10147, "longitude": -34.885324, "tipo_padronizado ": "Materiais Recicláveis" }, "geometry": { "type": "Point", "coordinates": [ -34.885324, -8.10147 ] } },
{ "type": "Feature", "properties": { "fid": 68, "tiporesiduo": "Materiais Recicláveis", "bairro": "Boa Viagem", "endereco": "R. Barão de Souza Leão, 131 - Boa Viagem, Recife", "complemento": null, "observacao": "PEV", "latitude": -8.13215, "longitude": -34.901202, "tipo_padronizado ": "Materiais Recicláveis" }, "geometry": { "type": "Point", "coordinates": [ -34.901202, -8.13215 ] } },
{ "type": "Feature", "properties": { "fid": 69, "tiporesiduo": "Materiais Recicláveis", "bairro": "Boa Viagem", "endereco": "Av. Boa Viagem, 3196 - Boa Viagem, Recife", "complemento": null, "observacao": "PEV", "latitude": -8.105139, "longitude": -34.887018, "tipo_padronizado ": "Materiais Recicláveis" }, "geometry": { "type": "Point", "coordinates": [ -34.887018, -8.105139 ] } },
{ "type": "Feature", "properties": { "fid": 70, "tiporesiduo": "Materiais Recicláveis", "bairro": "Imbiribeira", "endereco": "R. Quatorze, 216 - Imbiribeira, Recife", "complemento": null, "observacao": "PEV", "latitude": -8.099578, "longitude": -34.908741, "tipo_padronizado ": "Materiais Recicláveis" }, "geometry": { "type": "Point", "coordinates": [ -34.908741, -8.099578 ] } },
{ "type": "Feature", "properties": { "fid": 71, "tiporesiduo": "Materiais Recicláveis", "bairro": "Pina", "endereco": "Av. Antônio de Goes, 1050 - Pina, Recife", "complemento": null, "observacao": "PEV", "latitude": -8.084317, "longitude": -34.887553, "tipo_padronizado ": "Materiais Recicláveis" }, "geometry": { "type": "Point", "coordinates": [ -34.887553, -8.084317 ] } },
{ "type": "Feature", "properties": { "fid": 72, "tiporesiduo": "Materiais Recicláveis", "bairro": "Cohab", "endereco": "Av. Santos, 15 - COHAB, Recife", "complemento": null, "observacao": "PEV", "latitude": -8.115285, "longitude": -34.95355, "tipo_padronizado ": "Materiais Recicláveis" }, "geometry": { "type": "Point", "coordinates": [ -34.95355, -8.115285 ] } },
{ "type": "Feature", "properties": { "fid": 73, "tiporesiduo": "Materiais Recicláveis", "bairro": "Ibura", "endereco": "R. Rio Tapado, 39 - Ibura, Recife", "complemento": null, "observacao": "PEV", "latitude": -8.116771, "longitude": -34.943378, "tipo_padronizado ": "Materiais Recicláveis" }, "geometry": { "type": "Point", "coordinates": [ -34.943378, -8.116771 ] } },
{ "type": "Feature", "properties": { "fid": 74, "tiporesiduo": "metal,isopor,papel,plastico,vidro", "bairro": "Recife", "endereco": "Av. Cais do Apolo", "complemento": "Prefeitura do Recife (área interna )", "observacao": "Prefeitura do Recife", "latitude": -8.054732, "longitude": -34.872078, "tipo_padronizado ": "metal,isopor,papel,plastico,vidro" }, "geometry": { "type": "Point", "coordinates": [ -34.872078, -8.054732 ] } },
{ "type": "Feature", "properties": { "fid": 75, "tiporesiduo": "metal,isopor,papel,plastico,vidro", "bairro": "Recife", "endereco": "Rua do Bom Jesus", "complemento": "Em frente ao Museu Arq. e Pça do Arsenal", "observacao": "Ecoponto", "latitude": -8.061468, "longitude": -34.871037, "tipo_padronizado ": "metal,isopor,papel,plastico,vidro" }, "geometry": { "type": "Point", "coordinates": [ -34.871037, -8.061468 ] } },
{ "type": "Feature", "properties": { "fid": 76, "tiporesiduo": "metal,isopor,papel,plastico,vidro", "bairro": "Recife", "endereco": "Av. Marques de Olinda", "complemento": "Calçada da cimento nassau( em frete ao marco zero)", "observacao": "Ecoponto", "latitude": -8.063282, "longitude": -34.871568, "tipo_padronizado ": "metal,isopor,papel,plastico,vidro" }, "geometry": { "type": "Point", "coordinates": [ -34.871568, -8.063282 ] } },
{ "type": "Feature", "properties": { "fid": 77, "tiporesiduo": "metal,isopor,papel,plastico,vidro", "bairro": "Recife", "endereco": "Av. Rio Branco", "complemento": "Calçada do Banco do Brasil", "observacao": "Ecoponto", "latitude": -8.062334, "longitude": -34.873668, "tipo_padronizado ": "metal,isopor,papel,plastico,vidro" }, "geometry": { "type": "Point", "coordinates": [ -34.873668, -8.062334 ] } },
{ "type": "Feature", "properties": { "fid": 78, "tiporesiduo": "metal,isopor,papel,plastico,vidro", "bairro": "Santo Antônio", "endereco": "Avenida Dantas Barreto", "complemento": "Calçada da Praça da Independência", "observacao": "Ecoponto", "latitude": -8.064094, "longitude": -34.878483, "tipo_padronizado ": "metal,isopor,papel,plastico,vidro" }, "geometry": { "type": "Point", "coordinates": [ -34.878483, -8.064094 ] } },
{ "type": "Feature", "properties": { "fid": 79, "tiporesiduo": "metal,isopor,papel,plastico,vidro", "bairro": "São José", "endereco": "Rua Floriano Peixoto", "complemento": "Dentro da Estação de Metrô", "observacao": "Ecoponto", "latitude": -8.068556, "longitude": -34.88447, "tipo_padronizado ": "metal,isopor,papel,plastico,vidro" }, "geometry": { "type": "Point", "coordinates": [ -34.88447, -8.068556 ] } },
{ "type": "Feature", "properties": { "fid": 80, "tiporesiduo": "metal,isopor,papel,plastico,vidro", "bairro": "Santo Antônio", "endereco": "Rua da Aurora", "complemento": "Calçada em frente à quadra, lado oposto ", "observacao": "Ecoponto", "latitude": -8.054618, "longitude": -34.876745, "tipo_padronizado ": "metal,isopor,papel,plastico,vidro" }, "geometry": { "type": "Point", "coordinates": [ -34.876745, -8.054618 ] } },
{ "type": "Feature", "properties": { "fid": 81, "tiporesiduo": "metal,isopor,papel,pastico,vidro", "bairro": "Santo Amaro", "endereco": "Rua Princesa Isabel", "complemento": "Calçada do Parque 13 de Maio", "observacao": "Ecoponto", "latitude": -8.058044, "longitude": -34.882159, "tipo_padronizado ": "metal,isopor,papel,pastico,vidro" }, "geometry": { "type": "Point", "coordinates": [ -34.882159, -8.058044 ] } },
{ "type": "Feature", "properties": { "fid": 82, "tiporesiduo": "metal,isopor,papel,plastico,vidro", "bairro": "Ilha do Leite", "endereco": "Praça Miguel Cervantes", "complemento": "Primeira Ilha", "observacao": "Ecoponto", "latitude": -8.065414, "longitude": -34.893205, "tipo_padronizado ": "metal,isopor,papel,plastico,vidro" }, "geometry": { "type": "Point", "coordinates": [ -34.893205, -8.065414 ] } },
{ "type": "Feature", "properties": { "fid": 83, "tiporesiduo": "metal,isopor,papel,pastico,vidro", "bairro": "Paissandu", "endereco": "Avenida Lins Petit - Praça Chora Menino", "complemento": "Em frente da Praça Chora Menino", "observacao": "Ecoponto", "latitude": -8.060445, "longitude": -34.894878, "tipo_padronizado ": "metal,isopor,papel,pastico,vidro" }, "geometry": { "type": "Point", "coordinates": [ -34.894878, -8.060445 ] } },
{ "type": "Feature", "properties": { "fid": 84, "tiporesiduo": "metal,isopor,papel,plastico,vidro", "bairro": "Derby", "endereco": "Av. Agamenon Magalhães", "complemento": "Praça do Derby", "observacao": "Ecoponto", "latitude": -8.056318, "longitude": -34.898245, "tipo_padronizado ": "metal,isopor,papel,plastico,vidro" }, "geometry": { "type": "Point", "coordinates": [ -34.898245, -8.056318 ] } },
{ "type": "Feature", "properties": { "fid": 85, "tiporesiduo": "metal,isopor,papel,plastico,vidro", "bairro": "Santo Amaro", "endereco": "Av. Gov. Agamenon Magalhães", "complemento": "Praça do Parque Amorim", "observacao": "Ecoponto", "latitude": -8.051932, "longitude": -34.89503, "tipo_padronizado ": "metal,isopor,papel,plastico,vidro" }, "geometry": { "type": "Point", "coordinates": [ -34.89503, -8.051932 ] } },
{ "type": "Feature", "properties": { "fid": 86, "tiporesiduo": "metal,isopor,papel,plastico,vidro", "bairro": "Hipódromo", "endereco": "Rua Carlos Fernandes", "complemento": "Na Praça do Hipódromo", "observacao": "Ecoponto", "latitude": -8.032588, "longitude": -34.886414, "tipo_padronizado ": "metal,isopor,papel,plastico,vidro" }, "geometry": { "type": "Point", "coordinates": [ -34.886414, -8.032588 ] } },
{ "type": "Feature", "properties": { "fid": 87, "tiporesiduo": "metal,isopor,papel,plastico,vidro", "bairro": "Rosarinho", "endereco": "Av. Santos Dumont", "complemento": "Praça do Rosarinho", "observacao": "Ecoponto", "latitude": -8.032848, "longitude": -34.89619, "tipo_padronizado ": "metal,isopor,papel,plastico,vidro" }, "geometry": { "type": "Point", "coordinates": [ -34.89619, -8.032848 ] } },
{ "type": "Feature", "properties": { "fid": 88, "tiporesiduo": "metal,isopor,papel,plastico,vidro", "bairro": "Campo Grande", "endereco": "Av. Professor José dos Anjos", "complemento": "EcoEstação Arruda : Em frente da ponte do Rio Beberibe", "observacao": "Ecoponto", "latitude": -8.020431, "longitude": -34.87449, "tipo_padronizado ": "metal,isopor,papel,plastico,vidro" }, "geometry": { "type": "Point", "coordinates": [ -34.87449, -8.020431 ] } },
{ "type": "Feature", "properties": { "fid": 89, "tiporesiduo": "metal,isopor,papel,plastico,vidro", "bairro": "Graças", "endereco": "Rua Alberto Paiva", "complemento": "em frente ao Colégio São Luis", "observacao": "Ecoponto", "latitude": -8.04383, "longitude": -34.901421, "tipo_padronizado ": "metal,isopor,papel,plastico,vidro" }, "geometry": { "type": "Point", "coordinates": [ -34.901421, -8.04383 ] } },
{ "type": "Feature", "properties": { "fid": 90, "tiporesiduo": "metal,isopor,papel,plastico,vidro", "bairro": "Parnamirim", "endereco": "Av. 17 de Agosto", "complemento": "Praça Dr. José Vilela", "observacao": "Ecoponto", "latitude": -8.034167, "longitude": -34.91129, "tipo_padronizado ": "metal,isopor,papel,plastico,vidro" }, "geometry": { "type": "Point", "coordinates": [ -34.91129, -8.034167 ] } },
{ "type": "Feature", "properties": { "fid": 91, "tiporesiduo": "metal,isopor,papel,plastico,vidro", "bairro": "Santana", "endereco": "Rua Samuel Farias", "complemento": "Pça Comp. Antonio Maria, em frente ao Colégio Expoente", "observacao": "Ecoponto", "latitude": -8.040656, "longitude": -34.914137, "tipo_padronizado ": "metal,isopor,papel,plastico,vidro" }, "geometry": { "type": "Point", "coordinates": [ -34.914137, -8.040656 ] } },
{ "type": "Feature", "properties": { "fid": 92, "tiporesiduo": "metal,isopor,papel,plastico,vidro", "bairro": "Morro da Conceição", "endereco": "Rua Morro da Conceição", "complemento": "Praça do Morro da Conceição", "observacao": "Ecoponto", "latitude": -8.019382, "longitude": -34.914654, "tipo_padronizado ": "metal,isopor,papel,plastico,vidro" }, "geometry": { "type": "Point", "coordinates": [ -34.914654, -8.019382 ] } },
{ "type": "Feature", "properties": { "fid": 93, "tiporesiduo": "metal,isopor,papel,plastico,vidro", "bairro": "Monteiro", "endereco": "Av.17 de Agosto", "complemento": "Pça em frente ao Colégio Silva Jardim", "observacao": "Ecoponto", "latitude": -8.027919, "longitude": -34.928247, "tipo_padronizado ": "metal,isopor,papel,plastico,vidro" }, "geometry": { "type": "Point", "coordinates": [ -34.928247, -8.027919 ] } },
{ "type": "Feature", "properties": { "fid": 94, "tiporesiduo": "metal,isopor,papel,plastico,vidro", "bairro": "Jaqueira", "endereco": "Rua Rui Barbosa", "complemento": "Cais da Jaqueira,lateral do Parque da Jaqueira", "observacao": "Ecoponto", "latitude": -8.037156, "longitude": -34.90612, "tipo_padronizado ": "metal,isopor,papel,plastico,vidro" }, "geometry": { "type": "Point", "coordinates": [ -34.90612, -8.037156 ] } },
{ "type": "Feature", "properties": { "fid": 95, "tiporesiduo": "metal,isopor,papel,plastico,vidro", "bairro": "Poco", "endereco": "Rua do Futuro", "complemento": "Praça Souto Filho,Jaqueira.", "observacao": "Ecoponto", "latitude": -8.036269, "longitude": -34.902888, "tipo_padronizado ": "metal,isopor,papel,plastico,vidro" }, "geometry": { "type": "Point", "coordinates": [ -34.902888, -8.036269 ] } },
{ "type": "Feature", "properties": { "fid": 96, "tiporesiduo": "metal,isopor,papel,plastico,vidro", "bairro": "Poco", "endereco": "Estrada. Real do Poço.", "complemento": "Praça Rui Antunes", "observacao": "Ecoponto", "latitude": -8.036879, "longitude": -34.924999, "tipo_padronizado ": "metal,isopor,papel,plastico,vidro" }, "geometry": { "type": "Point", "coordinates": [ -34.924999, -8.036879 ] } },
{ "type": "Feature", "properties": { "fid": 97, "tiporesiduo": "metal,isopor,papel,plastico,vidro", "bairro": "Macaxeira", "endereco": "Av. Norte, Academia da Cidade do Buriti", "complemento": "em frente da Academia da Cidade do Burit", "observacao": "Ecoponto", "latitude": -8.016896, "longitude": -34.929414, "tipo_padronizado ": "metal,isopor,papel,plastico,vidro" }, "geometry": { "type": "Point", "coordinates": [ -34.929414, -8.016896 ] } },
{ "type": "Feature", "properties": { "fid": 98, "tiporesiduo": "metal,isopor,papel,plastico,vidro", "bairro": "Santana", "endereco": "R. Jorge Gomes de Sá (Parque de Santana)", "complemento": "em frente do Parque de Santana", "observacao": "Ecoponto", "latitude": -8.041134, "longitude": -34.917631, "tipo_padronizado ": "metal,isopor,papel,plastico,vidro" }, "geometry": { "type": "Point", "coordinates": [ -34.917631, -8.041134 ] } },
{ "type": "Feature", "properties": { "fid": 99, "tiporesiduo": "metal,isopor,papel,plastico,vidro", "bairro": "Casa Amarela", "endereco": "Av. Norte.", "complemento": "Praça do Trabalho, ", "observacao": "Ecoponto", "latitude": -8.023107, "longitude": -34.914341, "tipo_padronizado ": "metal,isopor,papel,plastico,vidro" }, "geometry": { "type": "Point", "coordinates": [ -34.914341, -8.023107 ] } },
{ "type": "Feature", "properties": { "fid": 100, "tiporesiduo": "metal,isopor,papel,plastico,vidro", "bairro": "Casa Amarela", "endereco": "Av.17 de Agosto.", "complemento": "Praça da Vitória Régia", "observacao": "Ecoponto", "latitude": -8.035752, "longitude": -34.920197, "tipo_padronizado ": "metal,isopor,papel,plastico,vidro" }, "geometry": { "type": "Point", "coordinates": [ -34.920197, -8.035752 ] } },
{ "type": "Feature", "properties": { "fid": 101, "tiporesiduo": "metal,isopor,papel,plastico,vidro", "bairro": "Ilha Joana Bezerra", "endereco": "Av. Beira Rio", "complemento": "Praça da Academia da Cidade", "observacao": "Ecoponto", "latitude": -8.046621, "longitude": -34.904167, "tipo_padronizado ": "metal,isopor,papel,plastico,vidro" }, "geometry": { "type": "Point", "coordinates": [ -34.904167, -8.046621 ] } },
{ "type": "Feature", "properties": { "fid": 102, "tiporesiduo": "metal,isopor,papel,plastico,vidro", "bairro": "Madalena", "endereco": "Rua José Múcio Monteiro", "complemento": "Estacionamento da FCAP-UPE", "observacao": "Ecoponto", "latitude": -8.061194, "longitude": -34.902833, "tipo_padronizado ": "metal,isopor,papel,plastico,vidro" }, "geometry": { "type": "Point", "coordinates": [ -34.902833, -8.061194 ] } },
{ "type": "Feature", "properties": { "fid": 103, "tiporesiduo": "metal,isopor,papel,plastico,vidro", "bairro": "Torre", "endereco": "Rua Prof. Barreto Campelo", "complemento": "Praça Prof. Barreto Campelo", "observacao": "Ecoponto", "latitude": -8.047006, "longitude": -34.913753, "tipo_padronizado ": "metal,isopor,papel,plastico,vidro" }, "geometry": { "type": "Point", "coordinates": [ -34.913753, -8.047006 ] } },
{ "type": "Feature", "properties": { "fid": 104, "tiporesiduo": "metal,isopor,papel,plastico,vidro", "bairro": "Engemho do Meio", "endereco": "Rua Antonio Curado", "complemento": "Praça da Academia da Cidade Arnaldo Assunção.", "observacao": "Ecoponto", "latitude": -8.057281, "longitude": -34.942328, "tipo_padronizado ": "metal,isopor,papel,plastico,vidro" }, "geometry": { "type": "Point", "coordinates": [ -34.942328, -8.057281 ] } },
{ "type": "Feature", "properties": { "fid": 105, "tiporesiduo": "metal,isopor,papel,plastico,vidro", "bairro": "Iputinga", "endereco": "Rua Bom Pastor", "complemento": "Praça do Bom Pastor", "observacao": "Ecoponto", "latitude": -8.04891, "longitude": -34.940114, "tipo_padronizado ": "metal,isopor,papel,plastico,vidro" }, "geometry": { "type": "Point", "coordinates": [ -34.940114, -8.04891 ] } },
{ "type": "Feature", "properties": { "fid": 106, "tiporesiduo": "metal,isopor,papel,plastico,vidro", "bairro": "Torre", "endereco": "Rua Real da Torre", "complemento": "Centro Educacional Paulo Freire da Prefeitura", "observacao": "Ecoponto", "latitude": -8.045157, "longitude": -34.910046, "tipo_padronizado ": "metal,isopor,papel,plastico,vidro" }, "geometry": { "type": "Point", "coordinates": [ -34.910046, -8.045157 ] } },
{ "type": "Feature", "properties": { "fid": 107, "tiporesiduo": "metal,isopor,papel,plastico,vidro", "bairro": "San Martin", "endereco": "Rua Dezesseis de Outubro - Cordeiro", "complemento": "Em frente do Parque Arraial Novo do Bom Jesus", "observacao": "Ecoponto", "latitude": -8.058085, "longitude": -34.931176, "tipo_padronizado ": "metal,isopor,papel,plastico,vidro" }, "geometry": { "type": "Point", "coordinates": [ -34.931176, -8.058085 ] } },
{ "type": "Feature", "properties": { "fid": 108, "tiporesiduo": "metal,isopor,papel,plastico,vidro", "bairro": "San Martin", "endereco": "Rua Elphego Jorge de Souza", "complemento": "ao lado do CHESF - Companhia Hidroelétrica do São Francisco", "observacao": "Ecoponto", "latitude": -8.064149, "longitude": -34.931022, "tipo_padronizado ": "metal,isopor,papel,plastico,vidro" }, "geometry": { "type": "Point", "coordinates": [ -34.931022, -8.064149 ] } },
{ "type": "Feature", "properties": { "fid": 109, "tiporesiduo": "metal,isopor,papel,plastico,vidro", "bairro": "San Martin", "endereco": "Av.General San Martin", "complemento": "Academia da Cidade de San Martin.", "observacao": "Ecoponto", "latitude": -8.066808, "longitude": -34.927572, "tipo_padronizado ": "metal,isopor,papel,plastico,vidro" }, "geometry": { "type": "Point", "coordinates": [ -34.927572, -8.066808 ] } },
{ "type": "Feature", "properties": { "fid": 110, "tiporesiduo": "metal,isopor,papel,plastico,vidro", "bairro": "Imbiribeira", "endereco": "Avenida Mascarenhas de Moraes", "complemento": "em frente à COPERGÁS", "observacao": "Ecoponto", "latitude": -8.087282, "longitude": -34.907481, "tipo_padronizado ": "metal,isopor,papel,plastico,vidro" }, "geometry": { "type": "Point", "coordinates": [ -34.907481, -8.087282 ] } },
{ "type": "Feature", "properties": { "fid": 111, "tiporesiduo": "eletrônico", "bairro": "San Martin", "endereco": "Rua Vinte e Um de Abril, 3370 ", "complemento": "EMPREL", "observacao": "EMPREL", "latitude": -8.0676699, "longitude": -34.938081, "tipo_padronizado ": "Eletroeletrônico" }, "geometry": { "type": "Point", "coordinates": [ -34.938081, -8.0676699 ] } },
{ "type": "Feature", "properties": { "fid": 112, "tiporesiduo": "eletrônico", "bairro": "Boa Vista", "endereco": "Av. Conde da Boa Vista, 867 ", "complemento": "URB", "observacao": "URB", "latitude": -8.0583029, "longitude": -34.888518, "tipo_padronizado ": "Eletroeletrônico" }, "geometry": { "type": "Point", "coordinates": [ -34.888518, -8.0583029 ] } },
{ "type": "Feature", "properties": { "fid": 113, "tiporesiduo": "metal,isopor,papel,plastico,vidro", "bairro": "Boa Viagem", "endereco": "Rua Visc. de Jequitinhonha, 2674", "complemento": null, "observacao": "Ecoponto", "latitude": -8.136264, "longitude": -34.903703, "tipo_padronizado ": "metal,isopor,papel,plastico,vidro" }, "geometry": { "type": "Point", "coordinates": [ -34.903703, -8.136264 ] } },
{ "type": "Feature", "properties": { "fid": 114, "tiporesiduo": "eletrônico", "bairro": "Curado", "endereco": "Rodovia BR 232, s/n - Curado", "complemento": null, "observacao": "Jardim Botânico do Recife", "latitude": -8.076071, "longitude": -34.966706, "tipo_padronizado ": "Eletroeletrônico" }, "geometry": { "type": "Point", "coordinates": [ -34.966706, -8.076071 ] } },
{ "type": "Feature", "properties": { "fid": 115, "tiporesiduo": "eletrônico", "bairro": "Areias", "endereco": "Av. Recife, 3587 - Areias", "complemento": "Próximo ao Hospital Geral de Areias", "observacao": "EMLURB", "latitude": -8.1020216, "longitude": -34.927986, "tipo_padronizado ": "Eletroeletrônico" }, "geometry": { "type": "Point", "coordinates": [ -34.927986, -8.1020216 ] } },
{ "type": "Feature", "properties": { "fid": 116, "tiporesiduo": "eletrônico", "bairro": "Beberibe", "endereco": "Rua Melânio de Barros Correia, 26", "complemento": null, "observacao": "ESCOLA PROFISSIONALIZANTE DE BEBERIBE ZULEIDE GOMES MONTEIRO", "latitude": -8.0030577, "longitude": -34.899059, "tipo_padronizado ": "Eletroeletrônico" }, "geometry": { "type": "Point", "coordinates": [ -34.899059, -8.0030577 ] } },
{ "type": "Feature", "properties": { "fid": 117, "tiporesiduo": "eletrônico", "bairro": "Casa Amarela", "endereco": "Av. Norte Miguel Arraes, 5600", "complemento": null, "observacao": "ESCOLA PROFISSIONAL DOM BOSCO", "latitude": -8.0215479, "longitude": -34.916639, "tipo_padronizado ": "Eletroeletrônico" }, "geometry": { "type": "Point", "coordinates": [ -34.916639, -8.0215479 ] } },
{ "type": "Feature", "properties": { "fid": 118, "tiporesiduo": "eletrônico", "bairro": "Totó", "endereco": "Av 11 de Agosto", "complemento": "Bidu Krause", "observacao": "ESCOLA PROFISSIONAL ANEXA AO CSU BIDU KRAUSE", "latitude": -8.0797775, "longitude": -34.970345, "tipo_padronizado ": "Eletroeletrônico" }, "geometry": { "type": "Point", "coordinates": [ -34.970345, -8.0797775 ] } },
{ "type": "Feature", "properties": { "fid": 119, "tiporesiduo": "pilhas e baterias", "bairro": "Casa Forte", "endereco": "Dr. João Santos Filho, 255", "complemento": null, "observacao": "Shopping Plaza no estacionamento do térreo", "latitude": -8.036359, "longitude": -34.913042, "tipo_padronizado ": "pilhas e baterias" }, "geometry": { "type": "Point", "coordinates": [ -34.913042, -8.036359 ] } },
{ "type": "Feature", "properties": { "fid": 120, "tiporesiduo": "pilhas e baterias", "bairro": "Boa Viagem", "endereco": "Rua Padre Carapuceiro, 777", "complemento": null, "observacao": "Nagem Informática", "latitude": -8.120844, "longitude": -34.904384, "tipo_padronizado ": "pilhas e baterias" }, "geometry": { "type": "Point", "coordinates": [ -34.904384, -8.120844 ] } },
{ "type": "Feature", "properties": { "fid": 121, "tiporesiduo": "pilhas e baterias", "bairro": "Casa Forte", "endereco": "Praça Jorn. Francisco P. Queiroz, 310", "complemento": null, "observacao": "Hiper Bompreço de Casa Forte", "latitude": -8.037597, "longitude": -34.91375, "tipo_padronizado ": "pilhas e baterias" }, "geometry": { "type": "Point", "coordinates": [ -34.91375, -8.037597 ] } },
{ "type": "Feature", "properties": { "fid": 122, "tiporesiduo": "pilhas e baterias", "bairro": "Casa Amarela", "endereco": "Av. Norte Miguel Arraes de Alencar, 6061 ", "complemento": null, "observacao": "Deskontão Atacadista", "latitude": -8.021132, "longitude": -34.919673, "tipo_padronizado ": "pilhas e baterias" }, "geometry": { "type": "Point", "coordinates": [ -34.919673, -8.021132 ] } },
{ "type": "Feature", "properties": { "fid": 123, "tiporesiduo": "pilhas e baterias", "bairro": "Iputinga", "endereco": "Av. Prof. Moraes Rego, 1235", "complemento": null, "observacao": "Universidade Federal de Pernambuco - UFPE", "latitude": -8.052328, "longitude": -34.945095, "tipo_padronizado ": "pilhas e baterias" }, "geometry": { "type": "Point", "coordinates": [ -34.945095, -8.052328 ] } },
{ "type": "Feature", "properties": { "fid": 124, "tiporesiduo": "metal,isopor,papel,plastico,vidro", "bairro": "Imbiribeira", "endereco": "Rua Nova Verona", "complemento": "Praça da Academia da Cidade/Lagoa do Araçá", "observacao": "Ecoponto", "latitude": -8.096588, "longitude": -34.915461, "tipo_padronizado ": "metal,isopor,papel,plastico,vidro" }, "geometry": { "type": "Point", "coordinates": [ -34.915461, -8.096588 ] } },
{ "type": "Feature", "properties": { "fid": 125, "tiporesiduo": "metal,isopor,papel,plastico,vidro", "bairro": "Boa Viagem", "endereco": "Av. Barão de Souza Leão", "complemento": "Posto Tiradentes/BR.", "observacao": "Ecoponto", "latitude": -8.132921, "longitude": -34.912598, "tipo_padronizado ": "metal,isopor,papel,plastico,vidro" }, "geometry": { "type": "Point", "coordinates": [ -34.912598, -8.132921 ] } },
{ "type": "Feature", "properties": { "fid": 126, "tiporesiduo": "metal,isopor,papel,plastico,vidro", "bairro": "Boa Viagem", "endereco": "Rua Marques de Valença", "complemento": "Lateral da Igreja Matriz de Boa Viagem", "observacao": "Ecoponto", "latitude": -8.131763, "longitude": -34.900649, "tipo_padronizado ": "metal,isopor,papel,plastico,vidro" }, "geometry": { "type": "Point", "coordinates": [ -34.900649, -8.131763 ] } },
{ "type": "Feature", "properties": { "fid": 127, "tiporesiduo": "metal,isopor,papel,plastico,vidro", "bairro": "Boa Viagem", "endereco": "Av. Boa Viagem", "complemento": "Parque Dona Lindú", "observacao": "Ecoponto", "latitude": -8.140939, "longitude": -34.903304, "tipo_padronizado ": "metal,isopor,papel,plastico,vidro" }, "geometry": { "type": "Point", "coordinates": [ -34.903304, -8.140939 ] } },
{ "type": "Feature", "properties": { "fid": 128, "tiporesiduo": "metal,isopor,papel,plastico,vidro", "bairro": "Boa Viagem", "endereco": "Rua Dr. Nilo Dornelas Câmara", "complemento": "Praça de Boa Viagem (calçada voltada para  a praia)", "observacao": "Ecoponto", "latitude": -8.132314, "longitude": -34.900105, "tipo_padronizado ": "metal,isopor,papel,plastico,vidro" }, "geometry": { "type": "Point", "coordinates": [ -34.900105, -8.132314 ] } },
{ "type": "Feature", "properties": { "fid": 129, "tiporesiduo": "lixo organico, metralhas, móveis, materiais recicláveis, eletroeletronico, utensílios domésticos e resíduos de podas", "bairro": "Curado", "endereco": "Rua Nelson de Sena", "complemento": "Em frente do : INST de Desenvol Econômico Social Produtivo", "observacao": "EcoEstação Totó", "latitude": -8.077703, "longitude": -34.971841, "tipo_padronizado ": "lixo organico, metralhas, móveis, materiais recicláveis, eletroeletronico, utensílios domésticos e resíduos de podas" }, "geometry": { "type": "Point", "coordinates": [ -34.971841, -8.077703 ] } },
{ "type": "Feature", "properties": { "fid": 130, "tiporesiduo": "metal,isopor,papel,plastico,vidro", "bairro": "Tejipio", "endereco": "AV. Liberdade", "complemento": "Em frente do portão Cemitério Parque das Flores", "observacao": "Ecoponto", "latitude": -8.082139, "longitude": -34.960278, "tipo_padronizado ": "metal,isopor,papel,plastico,vidro" }, "geometry": { "type": "Point", "coordinates": [ -34.960278, -8.082139 ] } },
{ "type": "Feature", "properties": { "fid": 131, "tiporesiduo": "metal,isopor,papel,plastico,vidro", "bairro": "Tejipio", "endereco": "AV. Dr. José Rufino", "complemento": "Saída da Estação Tejipió", "observacao": "Ecoponto", "latitude": -8.090814, "longitude": -34.957087, "tipo_padronizado ": "metal,isopor,papel,plastico,vidro" }, "geometry": { "type": "Point", "coordinates": [ -34.957087, -8.090814 ] } },
{ "type": "Feature", "properties": { "fid": 132, "tiporesiduo": "metal,isopor,papel,plastico,vidro", "bairro": "Barro", "endereco": "Rua José Benedito Mouri Fernandes", "complemento": "Rua Cap. Ponciano", "observacao": "Ecoponto", "latitude": -8.095265, "longitude": -34.94353, "tipo_padronizado ": "metal,isopor,papel,plastico,vidro" }, "geometry": { "type": "Point", "coordinates": [ -34.94353, -8.095265 ] } },
{ "type": "Feature", "properties": { "fid": 133, "tiporesiduo": "metal,isopor,papel,plastico,vidro", "bairro": "Areias", "endereco": "Rua Ipojuca", "complemento": "Praça Heróis da Restauração", "observacao": "Ecoponto", "latitude": -8.097034, "longitude": -34.936117, "tipo_padronizado ": "metal,isopor,papel,plastico,vidro" }, "geometry": { "type": "Point", "coordinates": [ -34.936117, -8.097034 ] } },
{ "type": "Feature", "properties": { "fid": 134, "tiporesiduo": "metal,isopor,papel,plastico,vidro", "bairro": "Jardim São Paulo", "endereco": "Rua Nossa Senhora de Fatima", "complemento": "Praça de Jardim São Paulo", "observacao": "Ecoponto", "latitude": -8.08196, "longitude": -34.938121, "tipo_padronizado ": "metal,isopor,papel,plastico,vidro" }, "geometry": { "type": "Point", "coordinates": [ -34.938121, -8.08196 ] } },
{ "type": "Feature", "properties": { "fid": 135, "tiporesiduo": "metal,isopor,papel,plastico,vidro", "bairro": "Cohab", "endereco": "Av. Rio Largo", "complemento": "Atras do E.M. Cristiano Cordeiro", "observacao": "EcoEstação", "latitude": -8.116778, "longitude": -34.943389, "tipo_padronizado ": "metal,isopor,papel,plastico,vidro" }, "geometry": { "type": "Point", "coordinates": [ -34.943389, -8.116778 ] } },
{ "type": "Feature", "properties": { "fid": 136, "tiporesiduo": "metal,isopor,papel,plastico,vidro", "bairro": "Ibura", "endereco": "Rua Rio das Pedras", "complemento": "Tech Infor Informática", "observacao": "EcoEstação", "latitude": -8.116722, "longitude": -34.94328, "tipo_padronizado ": "metal,isopor,papel,plastico,vidro" }, "geometry": { "type": "Point", "coordinates": [ -34.94328, -8.116722 ] } },
{ "type": "Feature", "properties": { "fid": 137, "tiporesiduo": "metal,isopor,papel,plastico,vidro", "bairro": "Caçote", "endereco": "Av. Recife", "complemento": "em frente do EMLURB", "observacao": "Ecoponto", "latitude": -8.102002, "longitude": -34.92827, "tipo_padronizado ": "metal,isopor,papel,plastico,vidro" }, "geometry": { "type": "Point", "coordinates": [ -34.92827, -8.102002 ] } },
{ "type": "Feature", "properties": { "fid": 138, "tiporesiduo": "metal,isopor,papel,plastico,vidro", "bairro": "Poço da Panela", "endereco": "Rua Eng. Oscár Ferreira, 338", "complemento": null, "observacao": "Amape-Associação Meio Ambiente Preservar e Educar", "latitude": -8.029387, "longitude": -34.922791, "tipo_padronizado ": "metal,isopor,papel,plastico,vidro" }, "geometry": { "type": "Point", "coordinates": [ -34.922791, -8.029387 ] } },
{ "type": "Feature", "properties": { "fid": 139, "tiporesiduo": "metal,isopor,papel,plastico,vidro", "bairro": "Dois Unidos", "endereco": "Rua Mamede Coelho, 53", "complemento": null, "observacao": "Associação de trapeiros do Emaús", "latitude": -8.005428, "longitude": -34.903342, "tipo_padronizado ": "metal,isopor,papel,plastico,vidro" }, "geometry": { "type": "Point", "coordinates": [ -34.903342, -8.005428 ] } },
{ "type": "Feature", "properties": { "fid": 140, "tiporesiduo": "metal,isopor,papel,plastico,vidro", "bairro": "Parnamirim", "endereco": "Rua Desembargador Góis Cavalcante, 261", "complemento": null, "observacao": "Pão de Açúcar do Parnamirim", "latitude": -8.031581, "longitude": -34.90845, "tipo_padronizado ": "metal,isopor,papel,plastico,vidro" }, "geometry": { "type": "Point", "coordinates": [ -34.90845, -8.031581 ] } },
{ "type": "Feature", "properties": { "fid": 141, "tiporesiduo": "eletrônico", "bairro": "Guabiraba", "endereco": "Av. da Recuperação, 318", "complemento": null, "observacao": "CRC Marista", "latitude": -8.016326, "longitude": -34.940215, "tipo_padronizado ": "Eletroeletrônico" }, "geometry": { "type": "Point", "coordinates": [ -34.940215, -8.016326 ] } },
{ "type": "Feature", "properties": { "fid": 142, "tiporesiduo": "Medicamentos", "bairro": "Torre", "endereco": "Rua José Bonifácio, 1315", "complemento": null, "observacao": "Drogarias Carrefour", "latitude": -8.040099, "longitude": -34.909766, "tipo_padronizado ": "Medicamentos" }, "geometry": { "type": "Point", "coordinates": [ -34.909766, -8.040099 ] } },
{ "type": "Feature", "properties": { "fid": 143, "tiporesiduo": "Óleos de Cozinha", "bairro": "Afogados", "endereco": "Rua da Paz, 82", "complemento": null, "observacao": "ASA Portaria", "latitude": -8.079229, "longitude": -34.904414, "tipo_padronizado ": "Óleos de Cozinha" }, "geometry": { "type": "Point", "coordinates": [ -34.904414, -8.079229 ] } },
{ "type": "Feature", "properties": { "fid": 144, "tiporesiduo": "Óleos de Cozinha", "bairro": "Afogados", "endereco": "Rua São Miguel, 250", "complemento": null, "observacao": "Procuradoria Geral de Justiça", "latitude": -8.066962, "longitude": -34.885139, "tipo_padronizado ": "Óleos de Cozinha" }, "geometry": { "type": "Point", "coordinates": [ -34.885139, -8.066962 ] } },
{ "type": "Feature", "properties": { "fid": 145, "tiporesiduo": "Óleos de Cozinha", "bairro": "Bomba do Hemetério", "endereco": "Rua Chã de Alegria, 117", "complemento": null, "observacao": "Escola Prof. Mardonio de Andrade Lima Coelho", "latitude": -8.020803, "longitude": -34.903803, "tipo_padronizado ": "Óleos de Cozinha" }, "geometry": { "type": "Point", "coordinates": [ -34.903803, -8.020803 ] } },
{ "type": "Feature", "properties": { "fid": 146, "tiporesiduo": "eletrônico", "bairro": "Jaqueira", "endereco": "Rua do futuro, 959", "complemento": null, "observacao": "Econúcleo Jaqueira", "latitude": -8.035791, "longitude": -34.904969, "tipo_padronizado ": "Eletroeletrônico" }, "geometry": { "type": "Point", "coordinates": [ -34.904969, -8.035791 ] } },
{ "type": "Feature", "properties": { "fid": 147, "tiporesiduo": "eletrônico", "bairro": "Boa Vista", "endereco": "Av. Governador Carlos de Lima Cavalcanti", "complemento": "Ao lado do Posto Dom Bosco", "observacao": "Empresa de Manutenção e Limpeza Urbana", "latitude": -8.056214, "longitude": -34.895461, "tipo_padronizado ": "Eletroeletrônico" }, "geometry": { "type": "Point", "coordinates": [ -34.895461, -8.056214 ] } },
{ "type": "Feature", "properties": { "fid": 148, "tiporesiduo": "eletrônico", "bairro": "Água Fria", "endereco": "Av. Aníbal Benévolo, 1552", "complemento": "ao lado Centro Comunitária da Paz - COMPAZ- Alto Santa Terezinha", "observacao": "Compaz Alto Santa Terezinha", "latitude": -8.010403, "longitude": -34.903292, "tipo_padronizado ": "Eletroeletrônico" }, "geometry": { "type": "Point", "coordinates": [ -34.903292, -8.010403 ] } },
{ "type": "Feature", "properties": { "fid": 149, "tiporesiduo": "eletrônico", "bairro": "Jiquiá", "endereco": "Av. General San Martin", "complemento": "Ao lado do Condomínio Morada Recife Antigo", "observacao": "Compaz San Martin", "latitude": -8.060022, "longitude": -34.926157, "tipo_padronizado ": "Eletroeletrônico" }, "geometry": { "type": "Point", "coordinates": [ -34.926157, -8.060022 ] } },
{ "type": "Feature", "properties": { "fid": 150, "tiporesiduo": "Óleos de Cozinha", "bairro": "Boa viagem", "endereco": "Rua Professor Eduardo Wanderley Filho", "complemento": "Ao lado do Condomínio  Ed. Sky Boa Viagem", "observacao": "colegio boa viagem", "latitude": -8.110761, "longitude": -34.894612, "tipo_padronizado ": "Óleos de Cozinha" }, "geometry": { "type": "Point", "coordinates": [ -34.894612, -8.110761 ] } },
{ "type": "Feature", "properties": { "fid": 151, "tiporesiduo": "Óleos de Cozinha", "bairro": "Boa Viagem", "endereco": "Rua Padre Cabral", "complemento": "Em frente a loja Miss Meria", "observacao": "Colégio Madre de Deus", "latitude": -8.133723, "longitude": -34.907142, "tipo_padronizado ": "Óleos de Cozinha" }, "geometry": { "type": "Point", "coordinates": [ -34.907142, -8.133723 ] } },
{ "type": "Feature", "properties": { "fid": 152, "tiporesiduo": "Óleos de Cozinha", "bairro": "Santo Antônio", "endereco": "Rua Moacir Boracho", "complemento": "Ao lado da Secretaria da fazenda do estado de pernambuco", "observacao": "Tribunal de Justiça (Ed. Paula Batista)", "latitude": -8.062223, "longitude": -34.876877, "tipo_padronizado ": "Óleos de Cozinha" }, "geometry": { "type": "Point", "coordinates": [ -34.876877, -8.062223 ] } },
{ "type": "Feature", "properties": { "fid": 153, "tiporesiduo": "Óleos de Cozinha", "bairro": "Engenho do Meio", "endereco": "Rua Bom Pastor, 1406", "complemento": null, "observacao": "Escola Municipal Engenho do Meio", "latitude": -8.049916, "longitude": -34.939615, "tipo_padronizado ": "Óleos de Cozinha" }, "geometry": { "type": "Point", "coordinates": [ -34.939615, -8.049916 ] } },
{ "type": "Feature", "properties": { "fid": 154, "tiporesiduo": "Óleos de Cozinha", "bairro": "Espinheiro", "endereco": "Av. João de Barros, 1545", "complemento": "Nº1545/1563", "observacao": "Colégio Saber Viver Espinheiro", "latitude": -8.041006, "longitude": -34.891821, "tipo_padronizado ": "Óleos de Cozinha" }, "geometry": { "type": "Point", "coordinates": [ -34.891821, -8.041006 ] } },
{ "type": "Feature", "properties": { "fid": 155, "tiporesiduo": "Óleos de Cozinha", "bairro": "Graças", "endereco": "Av. Rui Barbosa, 1680", "complemento": null, "observacao": "Colégio Núcleo", "latitude": -8.038775, "longitude": -34.904595, "tipo_padronizado ": "Óleos de Cozinha" }, "geometry": { "type": "Point", "coordinates": [ -34.904595, -8.038775 ] } },
{ "type": "Feature", "properties": { "fid": 156, "tiporesiduo": "Óleos de Cozinha", "bairro": "Ibura", "endereco": "Av. Ministro Oliveira Salazar, 228", "complemento": null, "observacao": "SESI Ibura", "latitude": -8.109953, "longitude": -34.937659, "tipo_padronizado ": "Óleos de Cozinha" }, "geometry": { "type": "Point", "coordinates": [ -34.937659, -8.109953 ] } },
{ "type": "Feature", "properties": { "fid": 157, "tiporesiduo": "Óleos de Cozinha", "bairro": "Ibura", "endereco": "Av. Pernambuco", "complemento": "Em frete do NÚCLEO DE SEGURANÇA COMUNITÁRIA", "observacao": "Escola Maria Sampaio de Lucena", "latitude": -8.121299, "longitude": -34.94675, "tipo_padronizado ": "Óleos de Cozinha" }, "geometry": { "type": "Point", "coordinates": [ -34.94675, -8.121299 ] } },
{ "type": "Feature", "properties": { "fid": 158, "tiporesiduo": "Óleos de Cozinha", "bairro": "Imbiribeira", "endereco": "Av. Marechal Mascarenhas de Morais, 1919", "complemento": null, "observacao": "Central de Juizados Especiais", "latitude": -8.099596, "longitude": -34.909465, "tipo_padronizado ": "Óleos de Cozinha" }, "geometry": { "type": "Point", "coordinates": [ -34.909465, -8.099596 ] } },
{ "type": "Feature", "properties": { "fid": 159, "tiporesiduo": "Óleos de Cozinha", "bairro": "Imbiribeira", "endereco": "Rua Conego Lira, 282", "complemento": null, "observacao": "Escola Anita Garibalde", "latitude": -8.095385, "longitude": -34.912275, "tipo_padronizado ": "Óleos de Cozinha" }, "geometry": { "type": "Point", "coordinates": [ -34.912275, -8.095385 ] } },
{ "type": "Feature", "properties": { "fid": 160, "tiporesiduo": "Óleos de Cozinha", "bairro": "Ipsep", "endereco": "Rua Saturnino Meireles, s/n", "complemento": null, "observacao": "EREM Engenheiro Lauro Dinis", "latitude": -8.114453, "longitude": -34.921247, "tipo_padronizado ": "Óleos de Cozinha" }, "geometry": { "type": "Point", "coordinates": [ -34.921247, -8.114453 ] } },
{ "type": "Feature", "properties": { "fid": 161, "tiporesiduo": "lixo organico, metralhas, móveis, materiais recicláveis, eletroeletronico, utensílios domésticos e resíduos de podas", "bairro": "Ibura", "endereco": "Rua Rio Tapado, s/n", "complemento": null, "observacao": "Ecoestação", "latitude": -8.116730339, "longitude": -34.9436, "tipo_padronizado ": "lixo organico, metralhas, móveis, materiais recicláveis, eletroeletronico, utensílios domésticos e resíduos de podas" }, "geometry": { "type": "Point", "coordinates": [ -34.9436, -8.116730339 ] } },
{ "type": "Feature", "properties": { "fid": 162, "tiporesiduo": "lixo organico, metralhas, móveis, materiais recicláveis, eletroeletronico, utensílios domésticos e resíduos de podas", "bairro": "Cohab", "endereco": "Av. Santos, s/n", "complemento": null, "observacao": "Ecoestação", "latitude": -8.115148417, "longitude": -34.9536, "tipo_padronizado ": "lixo organico, metralhas, móveis, materiais recicláveis, eletroeletronico, utensílios domésticos e resíduos de podas" }, "geometry": { "type": "Point", "coordinates": [ -34.9536, -8.115148417 ] } },
{ "type": "Feature", "properties": { "fid": 163, "tiporesiduo": "lixo organico, metralhas, móveis, materiais recicláveis, eletroeletronico, utensílios domésticos e resíduos de podas", "bairro": "Totó", "endereco": "Rua Onde de Agosto, s/n", "complemento": null, "observacao": "Ecoestação", "latitude": -8.077710064, "longitude": -34.9718, "tipo_padronizado ": "lixo organico, metralhas, móveis, materiais recicláveis, eletroeletronico, utensílios domésticos e resíduos de podas" }, "geometry": { "type": "Point", "coordinates": [ -34.9718, -8.077710064 ] } },
{ "type": "Feature", "properties": { "fid": 164, "tiporesiduo": "lixo organico, metralhas, móveis, materiais recicláveis, eletroeletronico, utensílios domésticos e resíduos de podas", "bairro": "Campo Grande", "endereco": "Avenida Agamenon Magalhães", "complemento": "Com a rua Odorico Mendes", "observacao": "Ecoestação", "latitude": -8.039064362, "longitude": -34.8784, "tipo_padronizado ": "lixo organico, metralhas, móveis, materiais recicláveis, eletroeletronico, utensílios domésticos e resíduos de podas" }, "geometry": { "type": "Point", "coordinates": [ -34.8784, -8.039064362 ] } },
{ "type": "Feature", "properties": { "fid": 165, "tiporesiduo": "lixo organico, metralhas, móveis, materiais recicláveis, eletroeletronico, utensílios domésticos e resíduos de podas", "bairro": "Imbiribeira", "endereco": "Avenida Mascarenhas de Morais", "complemento": "Sentido cidade/subúrbio, próximo ao viaduto Tancredo Neves", "observacao": "Ecoestação", "latitude": -8.123083048, "longitude": -34.9133, "tipo_padronizado ": "lixo organico, metralhas, móveis, materiais recicláveis, eletroeletronico, utensílios domésticos e resíduos de podas" }, "geometry": { "type": "Point", "coordinates": [ -34.9133, -8.123083048 ] } },
{ "type": "Feature", "properties": { "fid": 166, "tiporesiduo": "lixo organico, metralhas, móveis, materiais recicláveis, eletroeletronico, utensílios domésticos e resíduos de podas", "bairro": "Arruda", "endereco": "Rua Professor José dos Anjos", "complemento": "(Ao lado do Habitacional Palha de Arroz", "observacao": "Ecoestação", "latitude": -8.022630485000001, "longitude": -34.88009465, "tipo_padronizado ": "lixo organico, metralhas, móveis, materiais recicláveis, eletroeletronico, utensílios domésticos e resíduos de podas" }, "geometry": { "type": "Point", "coordinates": [ -34.88009465, -8.022630485 ] } },
{ "type": "Feature", "properties": { "fid": 167, "tiporesiduo": "lixo organico, metralhas, móveis, materiais recicláveis, eletroeletronico, utensílios domésticos e resíduos de podas", "bairro": "Torroes", "endereco": "Rua Maestro Jones Johnson, s/n", "complemento": null, "observacao": "Ecoestação", "latitude": -8.057749509000001, "longitude": -34.93538838, "tipo_padronizado ": "lixo organico, metralhas, móveis, materiais recicláveis, eletroeletronico, utensílios domésticos e resíduos de podas" }, "geometry": { "type": "Point", "coordinates": [ -34.93538838, -8.057749509 ] } },
{ "type": "Feature", "properties": { "fid": 168, "tiporesiduo": "metal,isopor,papel,plastico,vidro", "bairro": "Madalena", "endereco": "Rua Visconde de Albuquerque", "complemento": "Praça Eça de Queiroz", "observacao": "Ecoponto", "latitude": -8.050744, "longitude": -34.906654, "tipo_padronizado ": "metal,isopor,papel,plastico,vidro" }, "geometry": { "type": "Point", "coordinates": [ -34.906654, -8.050744 ] } },
{ "type": "Feature", "properties": { "fid": 169, "tiporesiduo": "metal,isopor,papel,plastico,vidro", "bairro": "Madalena", "endereco": "Avenida Abdias de Carvalho", "complemento": "Fcap", "observacao": "Ecoponto", "latitude": -8.061185, "longitude": -34.902842, "tipo_padronizado ": "metal,isopor,papel,plastico,vidro" }, "geometry": { "type": "Point", "coordinates": [ -34.902842, -8.061185 ] } },
{ "type": "Feature", "properties": { "fid": 170, "tiporesiduo": "Óleos de Cozinha", "bairro": "Aflitos", "endereco": "Av. Cons. Rosa Silva", "complemento": "SEMAS", "observacao": null, "latitude": -8.0398523, "longitude": -34.9015293, "tipo_padronizado ": "Óleos de Cozinha" }, "geometry": { "type": "Point", "coordinates": [ -34.9015293, -8.0398523 ] } },
{ "type": "Feature", "properties": { "fid": 171, "tiporesiduo": "Óleos de Cozinha", "bairro": "Areias", "endereco": "Av. Recife, 3587", "complemento": "EMLURB", "observacao": null, "latitude": -8.1018629, "longitude": -34.9304351, "tipo_padronizado ": "Óleos de Cozinha" }, "geometry": { "type": "Point", "coordinates": [ -34.9304351, -8.1018629 ] } },
{ "type": "Feature", "properties": { "fid": 172, "tiporesiduo": "Óleos de Cozinha", "bairro": "Dois Irmãos", "endereco": "Praça Faria Neves, s/n", "complemento": "Compesa - Dois irmãos", "observacao": null, "latitude": -8.015659, "longitude": -34.9431149, "tipo_padronizado ": "Óleos de Cozinha" }, "geometry": { "type": "Point", "coordinates": [ -34.9431149, -8.015659 ] } },
{ "type": "Feature", "properties": { "fid": 173, "tiporesiduo": "Óleos de Cozinha", "bairro": "Jardim São Paulo", "endereco": "Rua Capetinga, s/n", "complemento": "Escola Trajano de Mendoca", "observacao": null, "latitude": -8.0785098, "longitude": -34.9435062, "tipo_padronizado ": "Óleos de Cozinha" }, "geometry": { "type": "Point", "coordinates": [ -34.9435062, -8.0785098 ] } },
{ "type": "Feature", "properties": { "fid": 174, "tiporesiduo": "Óleos de Cozinha", "bairro": "Recife Antigo", "endereco": "Av. Rio Branco, 193", "complemento": "EREM Porto Digital", "observacao": null, "latitude": -8.0627359, "longitude": -34.8755563, "tipo_padronizado ": "Óleos de Cozinha" }, "geometry": { "type": "Point", "coordinates": [ -34.8755563, -8.0627359 ] } },
{ "type": "Feature", "properties": { "fid": 175, "tiporesiduo": "Óleos de Cozinha", "bairro": "Santo Amaro", "endereco": "Av. Cruz Cabugá, 767", "complemento": "Serviço Social da Indústria - Sesi", "observacao": null, "latitude": -8.0479, "longitude": -34.8798227, "tipo_padronizado ": "Óleos de Cozinha" }, "geometry": { "type": "Point", "coordinates": [ -34.8798227, -8.0479 ] } },
{ "type": "Feature", "properties": { "fid": 176, "tiporesiduo": "Óleos de Cozinha", "bairro": "Totó", "endereco": "Rua Onze de Agosto, 564", "complemento": "Compesa", "observacao": null, "latitude": -8.0784466, "longitude": -34.97339, "tipo_padronizado ": "Óleos de Cozinha" }, "geometry": { "type": "Point", "coordinates": [ -34.97339, -8.0784466 ] } },
{ "type": "Feature", "properties": { "fid": 177, "tiporesiduo": "Óleos de Cozinha", "bairro": "Vasco da gama", "endereco": "Rua Vasco da Gama,145", "complemento": "SESI Vasco da Gama", "observacao": null, "latitude": -8.0192679, "longitude": -34.9237825, "tipo_padronizado ": "Óleos de Cozinha" }, "geometry": { "type": "Point", "coordinates": [ -34.9237825, -8.0192679 ] } },
{ "type": "Feature", "properties": { "fid": 178, "tiporesiduo": "eletronico, metal,isopor,papel,plastico,vidro", "bairro": "Imbiribeira", "endereco": "Rua Antônio Cardoso da Fonte, n 483", "complemento": "Pro-Recife", "observacao": "Cooperativa", "latitude": -8.0977593, "longitude": -34.921774, "tipo_padronizado ": "eletronico, metal,isopor,papel,plastico,vidro" }, "geometry": { "type": "Point", "coordinates": [ -34.921774, -8.0977593 ] } },
{ "type": "Feature", "properties": { "fid": 179, "tiporesiduo": "eletronico, oleo de cozinha, metal,isopor,papel,plastico,vidro", "bairro": "Afogados", "endereco": "Rua Oscár Melo", "complemento": "COOPAGRES", "observacao": "Cooperativa", "latitude": -8.0977611, "longitude": -34.9283407, "tipo_padronizado ": "eletronico, oleo de cozinha, metal,isopor,papel,plastico,vidro" }, "geometry": { "type": "Point", "coordinates": [ -34.9283407, -8.0977611 ] } },
{ "type": "Feature", "properties": { "fid": 180, "tiporesiduo": "metal,isopor,papel,plastico,vidro", "bairro": "Arruda", "endereco": "Rua Farias Neves, n 982", "complemento": "Palha de arroz", "observacao": "Cooperativa", "latitude": -8.0203083, "longitude": -34.8764555, "tipo_padronizado ": "metal,isopor,papel,plastico,vidro" }, "geometry": { "type": "Point", "coordinates": [ -34.8764555, -8.0203083 ] } },
{ "type": "Feature", "properties": { "fid": 181, "tiporesiduo": "metal,isopor,papel,plastico,vidro", "bairro": "São José", "endereco": "Avenida Sul, S/N ", "complemento": "Cooperativa Verde Nossa Vida", "observacao": "Cooperativa", "latitude": -8.0754417, "longitude": -34.8909016, "tipo_padronizado ": "metal,isopor,papel,plastico,vidro" }, "geometry": { "type": "Point", "coordinates": [ -34.8909016, -8.0754417 ] } },
{ "type": "Feature", "properties": { "fid": 182, "tiporesiduo": "metal,isopor,papel,plastico,vidro", "bairro": "São José", "endereco": "Avenida Sul, S/N", "complemento": "Cooperativa Esperança Viva", "observacao": "Cooperativa", "latitude": -8.0754159, "longitude": -34.8910941, "tipo_padronizado ": "metal,isopor,papel,plastico,vidro" }, "geometry": { "type": "Point", "coordinates": [ -34.8910941, -8.0754159 ] } },
{ "type": "Feature", "properties": { "fid": 183, "tiporesiduo": "metal,isopor,papel,plastico,vidro", "bairro": "Torre", "endereco": "Rua Eliéser Olímpio de Moura, 100 A", "complemento": "Cooperativa Recicla Torre", "observacao": "Cooperativa", "latitude": -8.0445617, "longitude": -34.9151526, "tipo_padronizado ": "metal,isopor,papel,plastico,vidro" }, "geometry": { "type": "Point", "coordinates": [ -34.9151526, -8.0445617 ] } },
{ "type": "Feature", "properties": { "fid": 184, "tiporesiduo": "metal,isopor,papel,plastico,vidro", "bairro": "Dois Unidos/Passarinho", "endereco": "Av. Chagas Ferreira, 601", "complemento": "Cooperativa Resgatando Vidas", "observacao": "Cooperativa", "latitude": -8.0050971, "longitude": -34.9144973, "tipo_padronizado ": "metal,isopor,papel,plastico,vidro" }, "geometry": { "type": "Point", "coordinates": [ -34.9144973, -8.0050971 ] } },
{ "type": "Feature", "properties": { "fid": 185, "tiporesiduo": "Pneu", "bairro": "Madalena", "endereco": "Av. Abdias de Carvalho, 341", "complemento": "Pneus Pirelle", "observacao": null, "latitude": -8.0614164, "longitude": -34.9087182, "tipo_padronizado ": "Pneu" }, "geometry": { "type": "Point", "coordinates": [ -34.9087182, -8.0614164 ] } },
{ "type": "Feature", "properties": { "fid": 186, "tiporesiduo": "Pneu", "bairro": "Espinheiro", "endereco": "Av. Norte, 2261", "complemento": "Bridgestone Pneus", "observacao": null, "latitude": -8.0392157, "longitude": -34.893334, "tipo_padronizado ": "Pneu" }, "geometry": { "type": "Point", "coordinates": [ -34.893334, -8.0392157 ] } },
{ "type": "Feature", "properties": { "fid": 187, "tiporesiduo": "Pneu", "bairro": "São José", "endereco": "Rua Lourenço de Sá, 165", "complemento": "Pneu Verde", "observacao": null, "latitude": -8.0743288, "longitude": -34.8980205, "tipo_padronizado ": "Pneu" }, "geometry": { "type": "Point", "coordinates": [ -34.8980205, -8.0743288 ] } },
{ "type": "Feature", "properties": { "fid": 188, "tiporesiduo": "Lampada", "bairro": "Imbiribeira", "endereco": "Rua Francisco Correa de Moraes, 100", "complemento": "Carrefour RBV Boa Viagem", "observacao": null, "latitude": -8.1241489, "longitude": -34.9132995, "tipo_padronizado ": "Lampada" }, "geometry": { "type": "Point", "coordinates": [ -34.9132995, -8.1241489 ] } },
{ "type": "Feature", "properties": { "fid": 189, "tiporesiduo": "Eletroeletrônico", "bairro": "Jaqueira", "endereco": "R. Dep. Pedro Pires Ferreira - Jaqueira, Recife", "complemento": null, "observacao": null, "latitude": -8.0378431, "longitude": -34.9056631, "tipo_padronizado ": "Eletroeletrônico" }, "geometry": { "type": "Point", "coordinates": [ -34.9056631, -8.0378431 ] } },
{ "type": "Feature", "properties": { "fid": 190, "tiporesiduo": "Eletroeletrônico", "bairro": "Graças", "endereco": "Rua Gerásio Fioravante, 209. Graça, Recife", "complemento": null, "observacao": null, "latitude": -8.0487205, "longitude": -34.9032191, "tipo_padronizado ": "Eletroeletrônico" }, "geometry": { "type": "Point", "coordinates": [ -34.9032191, -8.0487205 ] } },
{ "type": "Feature", "properties": { "fid": 191, "tiporesiduo": "Eletroeletrônico", "bairro": "Recife", "endereco": "Rua Domingos José Martins, 75, Recife, Recife", "complemento": null, "observacao": null, "latitude": -8.0617605, "longitude": -34.8738724, "tipo_padronizado ": "Eletroeletrônico" }, "geometry": { "type": "Point", "coordinates": [ -34.8738724, -8.0617605 ] } },
{ "type": "Feature", "properties": { "fid": 192, "tiporesiduo": "Eletroeletrônico", "bairro": "Recife", "endereco": "Edifício Ministro Djaci Falcão, Cais do Apolo – Recife", "complemento": null, "observacao": null, "latitude": -8.0584761, "longitude": -34.8752464, "tipo_padronizado ": "Eletroeletrônico" }, "geometry": { "type": "Point", "coordinates": [ -34.8752464, -8.0584761 ] } },
{ "type": "Feature", "properties": { "fid": 193, "tiporesiduo": "Eletroeletrônico", "bairro": "Boa Viagem", "endereco": "Rua Ernesto de Paula Santos, Empresarial Nestor Rocha, 1172. Boa Viagem, Recife", "complemento": null, "observacao": null, "latitude": -8.1240023, "longitude": -34.9083706, "tipo_padronizado ": "Eletroeletrônico" }, "geometry": { "type": "Point", "coordinates": [ -34.9083706, -8.1240023 ] } },
{ "type": "Feature", "properties": { "fid": 194, "tiporesiduo": "Eletroeletrônico", "bairro": "Torrinha", "endereco": "Rua Manoel Queirós da Silva, nº 145, Torrinha - Cabo de Santo Agostinho", "complemento": null, "observacao": null, "latitude": -8.2866357, "longitude": -35.0348257, "tipo_padronizado ": "Eletroeletrônico" }, "geometry": { "type": "Point", "coordinates": [ -35.0348257, -8.2866357 ] } },
{ "type": "Feature", "properties": { "fid": 195, "tiporesiduo": "Eletroeletrônico", "bairro": "Derby", "endereco": "Rua Henrique Dias, 609. Derby, Recife", "complemento": null, "observacao": null, "latitude": -8.0591777, "longitude": -34.9013927, "tipo_padronizado ": "Eletroeletrônico" }, "geometry": { "type": "Point", "coordinates": [ -34.9013927, -8.0591777 ] } },
{ "type": "Feature", "properties": { "fid": 196, "tiporesiduo": "Eletroeletrônico", "bairro": "Casa Forte", "endereco": "Av. Dezessete de Agosto, 2187. Casa Forte, Recife", "complemento": null, "observacao": null, "latitude": -8.0311251, "longitude": -34.927634, "tipo_padronizado ": "Eletroeletrônico" }, "geometry": { "type": "Point", "coordinates": [ -34.927634, -8.0311251 ] } },
{ "type": "Feature", "properties": { "fid": 197, "tiporesiduo": "Eletroeletrônico", "bairro": "Muribeca", "endereco": "Rodovia 101 Sul, S/N, Km 81.30, Galpão B, Muribeca, PE", "complemento": null, "observacao": null, "latitude": -8.1633513, "longitude": -34.942587, "tipo_padronizado ": "Eletroeletrônico" }, "geometry": { "type": "Point", "coordinates": [ -34.942587, -8.1633513 ] } },
{ "type": "Feature", "properties": { "fid": 198, "tiporesiduo": "Eletroeletrônico", "bairro": "Ilha do Leite", "endereco": "Av. Gov. Agamenon Magalhães, 4475 - Ilha do Leite, Recife", "complemento": null, "observacao": null, "latitude": -8.0639936, "longitude": -34.899067, "tipo_padronizado ": "Eletroeletrônico" }, "geometry": { "type": "Point", "coordinates": [ -34.899067, -8.0639936 ] } },
{ "type": "Feature", "properties": { "fid": 199, "tiporesiduo": "Eletroeletrônico", "bairro": "Casa Caiada", "endereco": "Av. Doutor José Augusto Moreira, 900, Casa Caiada – Olinda", "complemento": null, "observacao": null, "latitude": -7.9930309, "longitude": -34.8436399, "tipo_padronizado ": "Eletroeletrônico" }, "geometry": { "type": "Point", "coordinates": [ -34.8436399, -7.9930309 ] } },
{ "type": "Feature", "properties": { "fid": 200, "tiporesiduo": "Eletroeletrônico", "bairro": "Espinheiro", "endereco": "Av. Gov. Agamenon Magalhães, 2978 - Espinheiro, Recife", "complemento": null, "observacao": null, "latitude": -8.0480403, "longitude": -34.8953919, "tipo_padronizado ": "Eletroeletrônico" }, "geometry": { "type": "Point", "coordinates": [ -34.8953919, -8.0480403 ] } },
{ "type": "Feature", "properties": { "fid": 201, "tiporesiduo": "Eletroeletrônico", "bairro": "Graças", "endereco": "Av. Rui Barbosa, 1104, Graças – Recife", "complemento": null, "observacao": null, "latitude": -8.042781, "longitude": -34.903612, "tipo_padronizado ": "Eletroeletrônico" }, "geometry": { "type": "Point", "coordinates": [ -34.903612, -8.042781 ] } },
{ "type": "Feature", "properties": { "fid": 202, "tiporesiduo": "Eletroeletrônico", "bairro": "Várzea", "endereco": "Rua Ministro Mário Andreaza, S/N, Várzea, Recife", "complemento": null, "observacao": null, "latitude": -8.0660793, "longitude": -34.9879686, "tipo_padronizado ": "Eletroeletrônico" }, "geometry": { "type": "Point", "coordinates": [ -34.9879686, -8.0660793 ] } },
{ "type": "Feature", "properties": { "fid": 203, "tiporesiduo": "Eletroeletrônico", "bairro": "Piedade", "endereco": "Av. Barreto de Menezes, 800, Piedade - Jaboatão dos Guararapes", "complemento": null, "observacao": null, "latitude": -8.1673071, "longitude": -34.9208037, "tipo_padronizado ": "Eletroeletrônico" }, "geometry": { "type": "Point", "coordinates": [ -34.9208037, -8.1673071 ] } },
{ "type": "Feature", "properties": { "fid": 204, "tiporesiduo": "Eletroeletrônico", "bairro": "Casa Forte", "endereco": "Rua Dr. João Santos Filho, 255, Casa Forte - Recife", "complemento": null, "observacao": null, "latitude": -8.0371544, "longitude": -34.9170377, "tipo_padronizado ": "Eletroeletrônico" }, "geometry": { "type": "Point", "coordinates": [ -34.9170377, -8.0371544 ] } },
{ "type": "Feature", "properties": { "fid": 205, "tiporesiduo": "Eletroeletrônico", "bairro": "Casa Caiada", "endereco": "R. Carmelita Muniz de Araújo, 225 - Casa Caiada, Olinda", "complemento": null, "observacao": null, "latitude": -7.9934726, "longitude": -34.8424758, "tipo_padronizado ": "Eletroeletrônico" }, "geometry": { "type": "Point", "coordinates": [ -34.8424758, -7.9934726 ] } },
{ "type": "Feature", "properties": { "fid": 206, "tiporesiduo": "Eletroeletrônico", "bairro": "Boa Viagem", "endereco": "Rua Belmonte, Nº 199, Boa Viagem - RECIFE/PE", "complemento": null, "observacao": null, "latitude": -8.1333142, "longitude": -34.9094507, "tipo_padronizado ": "Eletroeletrônico" }, "geometry": { "type": "Point", "coordinates": [ -34.9094507, -8.1333142 ] } },
{ "type": "Feature", "properties": { "fid": 207, "tiporesiduo": "Eletroeletrônico", "bairro": "Boa Viagem", "endereco": "Rua José Cardoso Aires, nº 705, Boa Viagem - Recife/PE", "complemento": null, "observacao": null, "latitude": -8.1415661, "longitude": -34.9122182, "tipo_padronizado ": "Eletroeletrônico" }, "geometry": { "type": "Point", "coordinates": [ -34.9122182, -8.1415661 ] } },
{ "type": "Feature", "properties": { "fid": 208, "tiporesiduo": "Eletroeletrônico", "bairro": "Tamarineira", "endereco": "Rua Sebastião Alves, nº 73, Tamarineira, Recife/PE", "complemento": null, "observacao": null, "latitude": -8.0316316, "longitude": -34.9079425, "tipo_padronizado ": "Eletroeletrônico" }, "geometry": { "type": "Point", "coordinates": [ -34.9079425, -8.0316316 ] } },
{ "type": "Feature", "properties": { "fid": 209, "tiporesiduo": "Eletroeletrônico", "bairro": "Pina", "endereco": "Av. República do Líbano nº251, Pina, Recife/PE", "complemento": null, "observacao": null, "latitude": -8.0370626, "longitude": -34.9498685, "tipo_padronizado ": "Eletroeletrônico" }, "geometry": { "type": "Point", "coordinates": [ -34.9498685, -8.0370626 ] } },
{ "type": "Feature", "properties": { "fid": 210, "tiporesiduo": "Eletroeletrônico", "bairro": "Graças", "endereco": "Rua Antenor Navarro, 81. Graças, Recife/PE", "complemento": null, "observacao": null, "latitude": -8.0375974, "longitude": -34.9044994, "tipo_padronizado ": "Eletroeletrônico" }, "geometry": { "type": "Point", "coordinates": [ -34.9044994, -8.0375974 ] } },
{ "type": "Feature", "properties": { "fid": 211, "tiporesiduo": "Eletroeletrônico", "bairro": "Complexo de Salgadinho", "endereco": "Parque Memorial Arcoverde Complexo de Salgadinho, Olinda - PE", "complemento": null, "observacao": null, "latitude": -8.0275616, "longitude": -34.8658949, "tipo_padronizado ": "Eletroeletrônico" }, "geometry": { "type": "Point", "coordinates": [ -34.8658949, -8.0275616 ] } },
{ "type": "Feature", "properties": { "fid": 212, "tiporesiduo": "Eletroeletrônico", "bairro": "São José", "endereco": "R. Santa Rita, 216 - São José, Recife - PE, 50020-320", "complemento": null, "observacao": null, "latitude": -8.0705413, "longitude": -34.8807705, "tipo_padronizado ": "Eletroeletrônico" }, "geometry": { "type": "Point", "coordinates": [ -34.8807705, -8.0705413 ] } },
{ "type": "Feature", "properties": { "fid": 213, "tiporesiduo": "Eletroeletrônico", "bairro": "Boa Viagem", "endereco": "R. Antônio Luís Soares, 129 - Boa Viagem, Recife - PE, 51210-050", "complemento": null, "observacao": null, "latitude": -8.1405929, "longitude": -34.9189458, "tipo_padronizado ": "Eletroeletrônico" }, "geometry": { "type": "Point", "coordinates": [ -34.9189458, -8.1405929 ] } },
{ "type": "Feature", "properties": { "fid": 214, "tiporesiduo": "Eletroeletrônico", "bairro": "Recife", "endereco": "Rua Bione, Cais do Apolo, 220, Recife - PE, 50030-390", "complemento": null, "observacao": null, "latitude": -8.0582517, "longitude": -34.8741831, "tipo_padronizado ": "Eletroeletrônico" }, "geometry": { "type": "Point", "coordinates": [ -34.8741831, -8.0582517 ] } },
{ "type": "Feature", "properties": { "fid": 215, "tiporesiduo": "Eletroeletrônico", "bairro": "Santo Antônio", "endereco": "Rua da Palma, 333", "complemento": null, "observacao": null, "latitude": -8.0658663, "longitude": -34.8830303, "tipo_padronizado ": "Eletroeletrônico" }, "geometry": { "type": "Point", "coordinates": [ -34.8830303, -8.0658663 ] } },
{ "type": "Feature", "properties": { "fid": 216, "tiporesiduo": "Eletroeletrônico", "bairro": "Boa Viagem", "endereco": "Shopping Recife", "complemento": null, "observacao": null, "latitude": -8.1028259, "longitude": -34.9113759, "tipo_padronizado ": "Eletroeletrônico" }, "geometry": { "type": "Point", "coordinates": [ -34.9113759, -8.1028259 ] } },
{ "type": "Feature", "properties": { "fid": 217, "tiporesiduo": "Eletroeletrônico", "bairro": "Piedade", "endereco": "Shopping Guararapes", "complemento": null, "observacao": null, "latitude": -8.1672976, "longitude": -34.9210322, "tipo_padronizado ": "Eletroeletrônico" }, "geometry": { "type": "Point", "coordinates": [ -34.9210322, -8.1672976 ] } },
{ "type": "Feature", "properties": { "fid": 218, "tiporesiduo": "Eletroeletrônico", "bairro": " Novo Carmelo", "endereco": "Av. Doutor Belmino Correia, 490A e 490B Loja 490 - Novo Carmelo", "complemento": null, "observacao": null, "latitude": -8.0206347, "longitude": -34.9839237, "tipo_padronizado ": "Eletroeletrônico" }, "geometry": { "type": "Point", "coordinates": [ -34.9839237, -8.0206347 ] } },
{ "type": "Feature", "properties": { "fid": 219, "tiporesiduo": "Eletroeletrônico", "bairro": "Casa Amarela", "endereco": "Rua Padre Lemos, 203 Loja 203 - Casa Amarela", "complemento": null, "observacao": null, "latitude": -8.0249844, "longitude": -34.9203791, "tipo_padronizado ": "Eletroeletrônico" }, "geometry": { "type": "Point", "coordinates": [ -34.9203791, -8.0249844 ] } },
{ "type": "Feature", "properties": { "fid": 220, "tiporesiduo": "Eletroeletrônico", "bairro": "Centro", "endereco": "Rodovia PE35, Loja L1 - 08 Quadra A1, Centro, Igarassu, PE", "complemento": null, "observacao": null, "latitude": -7.8329546, "longitude": -34.9173428, "tipo_padronizado ": "Eletroeletrônico" }, "geometry": { "type": "Point", "coordinates": [ -34.9173428, -7.8329546 ] } },
{ "type": "Feature", "properties": { "fid": 221, "tiporesiduo": "Eletroeletrônico", "bairro": "Centro", "endereco": "Av. Duque de Caxias, 735 - Centro - Abreu e Lima", "complemento": null, "observacao": null, "latitude": -7.9054073, "longitude": -34.9037419, "tipo_padronizado ": "Eletroeletrônico" }, "geometry": { "type": "Point", "coordinates": [ -34.9037419, -7.9054073 ] } },
{ "type": "Feature", "properties": { "fid": 222, "tiporesiduo": "Eletroeletrônico", "bairro": "Peixinhos", "endereco": "Av. Presidente Kennedy, 2114 - Peixinhos/Olinda", "complemento": null, "observacao": null, "latitude": -8.0125706, "longitude": -34.8751807, "tipo_padronizado ": "Eletroeletrônico" }, "geometry": { "type": "Point", "coordinates": [ -34.8751807, -8.0125706 ] } },
{ "type": "Feature", "properties": { "fid": 223, "tiporesiduo": "Eletroeletrônico", "bairro": "Santo Antônio", "endereco": "Rua da Palma, 251, 251 Loja - Santo Antônio", "complemento": null, "observacao": null, "latitude": -8.0650356, "longitude": -34.8827766, "tipo_padronizado ": "Eletroeletrônico" }, "geometry": { "type": "Point", "coordinates": [ -34.8827766, -8.0650356 ] } },
{ "type": "Feature", "properties": { "fid": 224, "tiporesiduo": "Eletroeletrônico", "bairro": "Pina", "endereco": "Shopping Rio Mar", "complemento": null, "observacao": null, "latitude": -8.0862866, "longitude": -34.8960435, "tipo_padronizado ": "Eletroeletrônico" }, "geometry": { "type": "Point", "coordinates": [ -34.8960435, -8.0862866 ] } },
{ "type": "Feature", "properties": { "fid": 225, "tiporesiduo": "Eletroeletrônico", "bairro": "Prazeres", "endereco": "Av. Barreto de Menezes , 342 Loja A - Prazeres", "complemento": null, "observacao": null, "latitude": -8.1621127, "longitude": -34.9282447, "tipo_padronizado ": "Eletroeletrônico" }, "geometry": { "type": "Point", "coordinates": [ -34.9282447, -8.1621127 ] } },
{ "type": "Feature", "properties": { "fid": 226, "tiporesiduo": "Eletroeletrônico", "bairro": "Cavaleiro", "endereco": "Av. Gov. Agamenon magalhães, 1121 - Cavaleiro", "complemento": null, "observacao": null, "latitude": -8.0915564, "longitude": -34.9757163, "tipo_padronizado ": "Eletroeletrônico" }, "geometry": { "type": "Point", "coordinates": [ -34.9757163, -8.0915564 ] } },
{ "type": "Feature", "properties": { "fid": 227, "tiporesiduo": "Eletroeletrônico", "bairro": "Casa Forte", "endereco": "Praça de Casa Forte, 465, Casa Forte - Recife", "complemento": null, "observacao": null, "latitude": -8.0347982, "longitude": -34.9211014, "tipo_padronizado ": "Eletroeletrônico" }, "geometry": { "type": "Point", "coordinates": [ -34.9211014, -8.0347982 ] } },
{ "type": "Feature", "properties": { "fid": 228, "tiporesiduo": "Eletroeletrônico", "bairro": "Ilha do Retiro", "endereco": "Rua Tabaiares, 360. Ilha do Retiro, Recife/PE", "complemento": null, "observacao": null, "latitude": -8.0650241, "longitude": -34.9072055, "tipo_padronizado ": "Eletroeletrônico" }, "geometry": { "type": "Point", "coordinates": [ -34.9072055, -8.0650241 ] } },
{ "type": "Feature", "properties": { "fid": 229, "tiporesiduo": "Eletroeletrônico", "bairro": "Aflitos", "endereco": "Av. Rosa e Silva, 1510. Aflitos, Recife/PE", "complemento": null, "observacao": null, "latitude": -8.0381858, "longitude": -34.9018883, "tipo_padronizado ": "Eletroeletrônico" }, "geometry": { "type": "Point", "coordinates": [ -34.9018883, -8.0381858 ] } },
{ "type": "Feature", "properties": { "fid": 230, "tiporesiduo": "Eletroeletrônico", "bairro": "Bongi", "endereco": "Rua Dona Maria Augusta Nogueira, 519, Bongi - Recife-PE", "complemento": null, "observacao": null, "latitude": -8.0651994, "longitude": -34.9252734, "tipo_padronizado ": "Eletroeletrônico" }, "geometry": { "type": "Point", "coordinates": [ -34.9252734, -8.0651994 ] } },
{ "type": "Feature", "properties": { "fid": 231, "tiporesiduo": "Eletroeletrônico", "bairro": "Macaxeira", "endereco": "Av. Norte Miguel Arraes de Alencar, s/n - Macaxeira, Recife", "complemento": null, "observacao": null, "latitude": -8.0145811, "longitude": -34.9337005, "tipo_padronizado ": "Eletroeletrônico" }, "geometry": { "type": "Point", "coordinates": [ -34.9337005, -8.0145811 ] } },
{ "type": "Feature", "properties": { "fid": 232, "tiporesiduo": "Eletroeletrônico", "bairro": "Rosarinho", "endereco": "R. Regueira Costa, S/N - Rosarinho, Recife - PE, 52041-050", "complemento": null, "observacao": null, "latitude": -8.0336766, "longitude": -34.900549, "tipo_padronizado ": "Eletroeletrônico" }, "geometry": { "type": "Point", "coordinates": [ -34.900549, -8.0336766 ] } },
{ "type": "Feature", "properties": { "fid": 233, "tiporesiduo": "Eletroeletrônico", "bairro": "Pina", "endereco": "Av. Eng. Domingos Ferreira, 2379 - Pina, Recife - PE, 51020-031", "complemento": null, "observacao": null, "latitude": -8.1113807, "longitude": -34.8947131, "tipo_padronizado ": "Eletroeletrônico" }, "geometry": { "type": "Point", "coordinates": [ -34.8947131, -8.1113807 ] } },
{ "type": "Feature", "properties": { "fid": 234, "tiporesiduo": "Eletroeletrônico", "bairro": "Cidade Universitária", "endereco": "Av. professor Luís Freire, 500, Cidade Universitária - Recife PE", "complemento": null, "observacao": null, "latitude": -8.0589441, "longitude": -34.9514295, "tipo_padronizado ": "Eletroeletrônico" }, "geometry": { "type": "Point", "coordinates": [ -34.9514295, -8.0589441 ] } },
{ "type": "Feature", "properties": { "fid": 235, "tiporesiduo": "Eletroeletrônico", "bairro": "Boa Vista", "endereco": "R. João Fernandes Viêira, s/n - Boa Vista, Recife - PE,", "complemento": null, "observacao": null, "latitude": -8.0534401, "longitude": -34.8941205, "tipo_padronizado ": "Eletroeletrônico" }, "geometry": { "type": "Point", "coordinates": [ -34.8941205, -8.0534401 ] } },
{ "type": "Feature", "properties": { "fid": 236, "tiporesiduo": "Eletroeletrônico", "bairro": "Madalena", "endereco": "R. Benfica, 286, Madalena", "complemento": null, "observacao": null, "latitude": -8.0590808, "longitude": -34.9036982, "tipo_padronizado ": "Eletroeletrônico" }, "geometry": { "type": "Point", "coordinates": [ -34.9036982, -8.0590808 ] } },
{ "type": "Feature", "properties": { "fid": 237, "tiporesiduo": "Eletroeletrônico", "bairro": "Cabo de Santo Agostinho", "endereco": "Rod. PE-060, Garapu, 3200, Cabo de Santo Agostinho-PE", "complemento": null, "observacao": null, "latitude": -8.3057691, "longitude": -35.0243541, "tipo_padronizado ": "Eletroeletrônico" }, "geometry": { "type": "Point", "coordinates": [ -35.0243541, -8.3057691 ] } },
{ "type": "Feature", "properties": { "fid": 238, "tiporesiduo": "Eletroeletrônico", "bairro": "Graças", "endereco": "R. do Futuro, 514 - Graças", "complemento": null, "observacao": null, "latitude": -8.0401792, "longitude": -34.9026316, "tipo_padronizado ": "Eletroeletrônico" }, "geometry": { "type": "Point", "coordinates": [ -34.9026316, -8.0401792 ] } },
{ "type": "Feature", "properties": { "fid": 239, "tiporesiduo": "Eletroeletrônico", "bairro": "Aflitos", "endereco": "Av. Conselheiro Rosa e Silva, 1339, Aflitos", "complemento": null, "observacao": null, "latitude": -8.0399506, "longitude": -34.9015436, "tipo_padronizado ": "Eletroeletrônico" }, "geometry": { "type": "Point", "coordinates": [ -34.9015436, -8.0399506 ] } },
{ "type": "Feature", "properties": { "fid": 240, "tiporesiduo": "Eletroeletrônico", "bairro": "Pombos", "endereco": "R. Joaquim Falcão, 109 - Pombos-PE", "complemento": null, "observacao": null, "latitude": -8.1405446, "longitude": -35.3993694, "tipo_padronizado ": "Eletroeletrônico" }, "geometry": { "type": "Point", "coordinates": [ -35.3993694, -8.1405446 ] } },
{ "type": "Feature", "properties": { "fid": 241, "tiporesiduo": "Eletroeletrônico", "bairro": "Centro", "endereco": "Av. Pres Getúlio Vargas, 457, centro, Abreu e Lima-PE", "complemento": null, "observacao": null, "latitude": -8.0077533, "longitude": -34.8439949, "tipo_padronizado ": "Eletroeletrônico" }, "geometry": { "type": "Point", "coordinates": [ -34.8439949, -8.0077533 ] } },
{ "type": "Feature", "properties": { "fid": 242, "tiporesiduo": "Eletroeletrônico", "bairro": "Caetés", "endereco": "PE-018, 24 - Caetés I, Abreu e Lima - PE", "complemento": null, "observacao": null, "latitude": -7.9241206, "longitude": -34.9379974, "tipo_padronizado ": "Eletroeletrônico" }, "geometry": { "type": "Point", "coordinates": [ -34.9379974, -7.9241206 ] } },
{ "type": "Feature", "properties": { "fid": 243, "tiporesiduo": "Eletroeletrônico", "bairro": "Caetés", "endereco": "Av. Rui Barbosa, 262 - Caetés Velho, Abreu e Lima - PE", "complemento": null, "observacao": null, "latitude": -7.9073764, "longitude": -34.9062509, "tipo_padronizado ": "Eletroeletrônico" }, "geometry": { "type": "Point", "coordinates": [ -34.9062509, -7.9073764 ] } },
{ "type": "Feature", "properties": { "fid": 244, "tiporesiduo": "Eletroeletrônico", "bairro": "Zumbi", "endereco": "R. Paraguassú, 255, Zumbi, Recife-pE", "complemento": null, "observacao": null, "latitude": -8.0496016, "longitude": -34.9195291, "tipo_padronizado ": "Eletroeletrônico" }, "geometry": { "type": "Point", "coordinates": [ -34.9195291, -8.0496016 ] } }
]
}
